{"type": "FeatureCollection", "timestamp": "2025-01-10T21:48:00Z", "valid_time": "2025-01-12T00:00:00Z", "valid_start": "2025-01-11T00:00:00Z", "horizon_hours": 24, "model_version": "unet-ndws-v3", "members": ["unet"], "w_unet": 0.5, "risk_thresholds": {"MODERATE_RISK": 0.05, "HIGH_RISK": 0.157753124833107}, "input_mode": "live", "features": [{"type": "Feature", "properties": {"grid_id": 887568, "fire_probability": 1.0, "risk_label": "ACTIVE_FIRE", "p_unet": 0.006, "p_low": 0.006, "p_high": 0.006}, "geometry": {"type": "Polygon", "coordinates": [[[-121.999835, 37.334184], [-121.988966, 37.334041], [-121.988793, 37.343052], [-121.999663, 37.343195], [-121.999835, 37.334184]]]}}, {"type": "Feature", "properties": {"grid_id": 887569, "fire_probability": 1.0, "risk_label": "ACTIVE_FIRE", "p_unet": 0.006, "p_low": 0.004, "p_high": 0.006}, "geometry": {"type": "Polygon", "coordinates": [[[-121.988966, 37.334041], [-121.978097, 37.333897], [-121.977923, 37.342908], [-121.988793, 37.343052], [-121.988966, 37.334041]]]}}, {"type": "Feature", "properties": {"grid_id": 887570, "fire_probability": 1.0, "risk_label": "ACTIVE_FIRE", "p_unet": 0.006, "p_low": 0.003, "p_high": 0.006}, "geometry": {"type": "Polygon", "coordinates": [[[-121.978097, 37.333897], [-121.967229, 37.333751], [-121.967053, 37.342762], [-121.977923, 37.342908], [-121.978097, 37.333897]]]}}, {"type": "Feature", "properties": {"grid_id": 888568, "fire_probability": 1.0, "risk_label": "ACTIVE_FIRE", "p_unet": 0.006, "p_low": 0.005, "p_high": 0.006}, "geometry": {"type": "Polygon", "coordinates": [[[-122.000007, 37.325173], [-121.98914, 37.32503], [-121.988966, 37.334041], [-121.999835, 37.334184], [-122.000007, 37.325173]]]}}, {"type": "Feature", "properties": {"grid_id": 888569, "fire_probability": 1.0, "risk_label": "ACTIVE_FIRE", "p_unet": 0.006, "p_low": 0.003, "p_high": 0.006}, "geometry": {"type": "Polygon", "coordinates": [[[-121.98914, 37.32503], [-121.978272, 37.324886], [-121.978097, 37.333897], [-121.988966, 37.334041], [-121.98914, 37.32503]]]}}, {"type": "Feature", "properties": {"grid_id": 888570, "fire_probability": 1.0, "risk_label": "ACTIVE_FIRE", "p_unet": 0.006, "p_low": 0.003, "p_high": 0.006}, "geometry": {"type": "Polygon", "coordinates": [[[-121.978272, 37.324886], [-121.967404, 37.32474], [-121.967229, 37.333751], [-121.978097, 37.333897], [-121.978272, 37.324886]]]}}, {"type": "Feature", "properties": {"grid_id": 889569, "fire_probability": 1.0, "risk_label": "ACTIVE_FIRE", "p_unet": 0.003, "p_low": 0.003, "p_high": 0.006}, "geometry": {"type": "Polygon", "coordinates": [[[-121.989313, 37.316019], [-121.978446, 37.315875], [-121.978272, 37.324886], [-121.98914, 37.32503], [-121.989313, 37.316019]]]}}, {"type": "Feature", "properties": {"grid_id": 889570, "fire_probability": 1.0, "risk_label": "ACTIVE_FIRE", "p_unet": 0.003, "p_low": 0.003, "p_high": 0.006}, "geometry": {"type": "Polygon", "coordinates": [[[-121.978446, 37.315875], [-121.96758, 37.315729], [-121.967404, 37.32474], [-121.978272, 37.324886], [-121.978446, 37.315875]]]}}, {"type": "Feature", "properties": {"grid_id": 891541, "fire_probability": 1.0, "risk_label": "ACTIVE_FIRE", "p_unet": 0.006, "p_low": 0.006, "p_high": 0.006}, "geometry": {"type": "Polygon", "coordinates": [[[-122.293863, 37.301611], [-122.282998, 37.301496], [-122.282859, 37.310508], [-122.293725, 37.310623], [-122.293863, 37.301611]]]}}, {"type": "Feature", "properties": {"grid_id": 905550, "fire_probability": 1.0, "risk_label": "ACTIVE_FIRE", "p_unet": 0.02, "p_low": 0.006, "p_high": 0.125}, "geometry": {"type": "Polygon", "coordinates": [[[-122.198169, 37.174367], [-122.187322, 37.174243], [-122.187172, 37.183256], [-122.19802, 37.18338], [-122.198169, 37.174367]]]}}, {"type": "Feature", "properties": {"grid_id": 905551, "fire_probability": 1.0, "risk_label": "ACTIVE_FIRE", "p_unet": 0.018, "p_low": 0.006, "p_high": 0.111}, "geometry": {"type": "Polygon", "coordinates": [[[-122.187322, 37.174243], [-122.176475, 37.174118], [-122.176323, 37.18313], [-122.187172, 37.183256], [-122.187322, 37.174243]]]}}, {"type": "Feature", "properties": {"grid_id": 908547, "fire_probability": 1.0, "risk_label": "ACTIVE_FIRE", "p_unet": 0.006, "p_low": 0.006, "p_high": 0.01}, "geometry": {"type": "Polygon", "coordinates": [[[-122.231146, 37.147695], [-122.220303, 37.147574], [-122.220156, 37.156587], [-122.231001, 37.156708], [-122.231146, 37.147695]]]}}, {"type": "Feature", "properties": {"grid_id": 911562, "fire_probability": 0.058, "risk_label": "MODERATE_RISK", "p_unet": 0.058, "p_low": 0.058, "p_high": 0.138}, "geometry": {"type": "Polygon", "coordinates": [[[-122.068987, 37.118731], [-122.058148, 37.118594], [-122.057983, 37.127607], [-122.068824, 37.127744], [-122.068987, 37.118731]]]}}, {"type": "Feature", "properties": {"grid_id": 911563, "fire_probability": 0.087, "risk_label": "MODERATE_RISK", "p_unet": 0.087, "p_low": 0.087, "p_high": 0.199}, "geometry": {"type": "Polygon", "coordinates": [[[-122.058148, 37.118594], [-122.047309, 37.118457], [-122.047142, 37.12747], [-122.057983, 37.127607], [-122.058148, 37.118594]]]}}, {"type": "Feature", "properties": {"grid_id": 911564, "fire_probability": 1.0, "risk_label": "ACTIVE_FIRE", "p_unet": 0.108, "p_low": 0.108, "p_high": 0.243}, "geometry": {"type": "Polygon", "coordinates": [[[-122.047309, 37.118457], [-122.036469, 37.118318], [-122.036302, 37.127331], [-122.047142, 37.12747], [-122.047309, 37.118457]]]}}, {"type": "Feature", "properties": {"grid_id": 911565, "fire_probability": 1.0, "risk_label": "ACTIVE_FIRE", "p_unet": 0.111, "p_low": 0.111, "p_high": 0.25}, "geometry": {"type": "Polygon", "coordinates": [[[-122.036469, 37.118318], [-122.02563, 37.118178], [-122.025462, 37.127191], [-122.036302, 37.127331], [-122.036469, 37.118318]]]}}, {"type": "Feature", "properties": {"grid_id": 911566, "fire_probability": 0.074, "risk_label": "MODERATE_RISK", "p_unet": 0.074, "p_low": 0.074, "p_high": 0.351}, "geometry": {"type": "Polygon", "coordinates": [[[-122.02563, 37.118178], [-122.014791, 37.118038], [-122.014621, 37.127051], [-122.025462, 37.127191], [-122.02563, 37.118178]]]}}, {"type": "Feature", "properties": {"grid_id": 912561, "fire_probability": 0.074, "risk_label": "MODERATE_RISK", "p_unet": 0.074, "p_low": 0.074, "p_high": 0.075}, "geometry": {"type": "Polygon", "coordinates": [[[-122.079989, 37.109853], [-122.069151, 37.109718], [-122.068987, 37.118731], [-122.079827, 37.118866], [-122.079989, 37.109853]]]}}, {"type": "Feature", "properties": {"grid_id": 912562, "fire_probability": 0.111, "risk_label": "MODERATE_RISK", "p_unet": 0.111, "p_low": 0.111, "p_high": 0.144}, "geometry": {"type": "Polygon", "coordinates": [[[-122.069151, 37.109718], [-122.058313, 37.109581], [-122.058148, 37.118594], [-122.068987, 37.118731], [-122.069151, 37.109718]]]}}, {"type": "Feature", "properties": {"grid_id": 912563, "fire_probability": 1.0, "risk_label": "ACTIVE_FIRE", "p_unet": 0.173, "p_low": 0.173, "p_high": 0.25}, "geometry": {"type": "Polygon", "coordinates": [[[-122.058313, 37.109581], [-122.047475, 37.109444], [-122.047309, 37.118457], [-122.058148, 37.118594], [-122.058313, 37.109581]]]}}, {"type": "Feature", "properties": {"grid_id": 912564, "fire_probability": 1.0, "risk_label": "ACTIVE_FIRE", "p_unet": 0.22, "p_low": 0.191, "p_high": 0.25}, "geometry": {"type": "Polygon", "coordinates": [[[-122.047475, 37.109444], [-122.036637, 37.109305], [-122.036469, 37.118318], [-122.047309, 37.118457], [-122.047475, 37.109444]]]}}, {"type": "Feature", "properties": {"grid_id": 912565, "fire_probability": 1.0, "risk_label": "ACTIVE_FIRE", "p_unet": 0.199, "p_low": 0.199, "p_high": 0.22}, "geometry": {"type": "Polygon", "coordinates": [[[-122.036637, 37.109305], [-122.025799, 37.109165], [-122.02563, 37.118178], [-122.036469, 37.118318], [-122.036637, 37.109305]]]}}, {"type": "Feature", "properties": {"grid_id": 912566, "fire_probability": 1.0, "risk_label": "ACTIVE_FIRE", "p_unet": 0.144, "p_low": 0.125, "p_high": 0.22}, "geometry": {"type": "Polygon", "coordinates": [[[-122.025799, 37.109165], [-122.014961, 37.109025], [-122.014791, 37.118038], [-122.02563, 37.118178], [-122.025799, 37.109165]]]}}, {"type": "Feature", "properties": {"grid_id": 912567, "fire_probability": 0.077, "risk_label": "MODERATE_RISK", "p_unet": 0.077, "p_low": 0.075, "p_high": 0.22}, "geometry": {"type": "Polygon", "coordinates": [[[-122.014961, 37.109025], [-122.004123, 37.108883], [-122.003952, 37.117896], [-122.014791, 37.118038], [-122.014961, 37.109025]]]}}, {"type": "Feature", "properties": {"grid_id": 912568, "fire_probability": 0.056, "risk_label": "MODERATE_RISK", "p_unet": 0.056, "p_low": 0.037, "p_high": 0.07}, "geometry": {"type": "Polygon", "coordinates": [[[-122.004123, 37.108883], [-121.993285, 37.10874], [-121.993113, 37.117753], [-122.003952, 37.117896], [-122.004123, 37.108883]]]}}, {"type": "Feature", "properties": {"grid_id": 913561, "fire_probability": 0.098, "risk_label": "MODERATE_RISK", "p_unet": 0.098, "p_low": 0.075, "p_high": 0.098}, "geometry": {"type": "Polygon", "coordinates": [[[-122.080151, 37.10084], [-122.069314, 37.100704], [-122.069151, 37.109718], [-122.079989, 37.109853], [-122.080151, 37.10084]]]}}, {"type": "Feature", "properties": {"grid_id": 913562, "fire_probability": 1.0, "risk_label": "ACTIVE_FIRE", "p_unet": 0.144, "p_low": 0.144, "p_high": 0.144}, "geometry": {"type": "Polygon", "coordinates": [[[-122.069314, 37.100704], [-122.058478, 37.100568], [-122.058313, 37.109581], [-122.069151, 37.109718], [-122.069314, 37.100704]]]}}, {"type": "Feature", "properties": {"grid_id": 913563, "fire_probability": 1.0, "risk_label": "ACTIVE_FIRE", "p_unet": 0.191, "p_low": 0.191, "p_high": 0.22}, "geometry": {"type": "Polygon", "coordinates": [[[-122.058478, 37.100568], [-122.047641, 37.10043], [-122.047475, 37.109444], [-122.058313, 37.109581], [-122.058478, 37.100568]]]}}, {"type": "Feature", "properties": {"grid_id": 913564, "fire_probability": 1.0, "risk_label": "ACTIVE_FIRE", "p_unet": 0.191, "p_low": 0.191, "p_high": 0.224}, "geometry": {"type": "Polygon", "coordinates": [[[-122.047641, 37.10043], [-122.036804, 37.100292], [-122.036637, 37.109305], [-122.047475, 37.109444], [-122.047641, 37.10043]]]}}, {"type": "Feature", "properties": {"grid_id": 913565, "fire_probability": 1.0, "risk_label": "ACTIVE_FIRE", "p_unet": 0.191, "p_low": 0.173, "p_high": 0.191}, "geometry": {"type": "Polygon", "coordinates": [[[-122.036804, 37.100292], [-122.025967, 37.100152], [-122.025799, 37.109165], [-122.036637, 37.109305], [-122.036804, 37.100292]]]}}, {"type": "Feature", "properties": {"grid_id": 913566, "fire_probability": 1.0, "risk_label": "ACTIVE_FIRE", "p_unet": 0.167, "p_low": 0.133, "p_high": 0.167}, "geometry": {"type": "Polygon", "coordinates": [[[-122.025967, 37.100152], [-122.01513, 37.100011], [-122.014961, 37.109025], [-122.025799, 37.109165], [-122.025967, 37.100152]]]}}, {"type": "Feature", "properties": {"grid_id": 913567, "fire_probability": 0.077, "risk_label": "MODERATE_RISK", "p_unet": 0.077, "p_low": 0.074, "p_high": 0.125}, "geometry": {"type": "Polygon", "coordinates": [[[-122.01513, 37.100011], [-122.004294, 37.09987], [-122.004123, 37.108883], [-122.014961, 37.109025], [-122.01513, 37.100011]]]}}, {"type": "Feature", "properties": {"grid_id": 913568, "fire_probability": 0.052, "risk_label": "MODERATE_RISK", "p_unet": 0.052, "p_low": 0.052, "p_high": 0.11}, "geometry": {"type": "Polygon", "coordinates": [[[-122.004294, 37.09987], [-121.993457, 37.099727], [-121.993285, 37.10874], [-122.004123, 37.108883], [-122.004294, 37.09987]]]}}, {"type": "Feature", "properties": {"grid_id": 913570, "fire_probability": 1.0, "risk_label": "ACTIVE_FIRE", "p_unet": 0.01, "p_low": 0.01, "p_high": 0.021}, "geometry": {"type": "Polygon", "coordinates": [[[-121.982621, 37.099583], [-121.971784, 37.099439], [-121.971609, 37.108452], [-121.982447, 37.108596], [-121.982621, 37.099583]]]}}, {"type": "Feature", "properties": {"grid_id": 914561, "fire_probability": 1.0, "risk_label": "ACTIVE_FIRE", "p_unet": 0.087, "p_low": 0.059, "p_high": 0.087}, "geometry": {"type": "Polygon", "coordinates": [[[-122.080314, 37.091827], [-122.069478, 37.091691], [-122.069314, 37.100704], [-122.080151, 37.10084], [-122.080314, 37.091827]]]}}, {"type": "Feature", "properties": {"grid_id": 914562, "fire_probability": 1.0, "risk_label": "ACTIVE_FIRE", "p_unet": 0.144, "p_low": 0.074, "p_high": 0.144}, "geometry": {"type": "Polygon", "coordinates": [[[-122.069478, 37.091691], [-122.058642, 37.091555], [-122.058478, 37.100568], [-122.069314, 37.100704], [-122.069478, 37.091691]]]}}, {"type": "Feature", "properties": {"grid_id": 914563, "fire_probability": 1.0, "risk_label": "ACTIVE_FIRE", "p_unet": 0.173, "p_low": 0.125, "p_high": 0.173}, "geometry": {"type": "Polygon", "coordinates": [[[-122.058642, 37.091555], [-122.047807, 37.091417], [-122.047641, 37.10043], [-122.058478, 37.100568], [-122.058642, 37.091555]]]}}, {"type": "Feature", "properties": {"grid_id": 914564, "fire_probability": 1.0, "risk_label": "ACTIVE_FIRE", "p_unet": 0.199, "p_low": 0.11, "p_high": 0.199}, "geometry": {"type": "Polygon", "coordinates": [[[-122.047807, 37.091417], [-122.036971, 37.091278], [-122.036804, 37.100292], [-122.047641, 37.10043], [-122.047807, 37.091417]]]}}, {"type": "Feature", "properties": {"grid_id": 914565, "fire_probability": 1.0, "risk_label": "ACTIVE_FIRE", "p_unet": 0.22, "p_low": 0.108, "p_high": 0.22}, "geometry": {"type": "Polygon", "coordinates": [[[-122.036971, 37.091278], [-122.026136, 37.091139], [-122.025967, 37.100152], [-122.036804, 37.100292], [-122.036971, 37.091278]]]}}, {"type": "Feature", "properties": {"grid_id": 914566, "fire_probability": 1.0, "risk_label": "ACTIVE_FIRE", "p_unet": 0.184, "p_low": 0.098, "p_high": 0.184}, "geometry": {"type": "Polygon", "coordinates": [[[-122.026136, 37.091139], [-122.0153, 37.090998], [-122.01513, 37.100011], [-122.025967, 37.100152], [-122.026136, 37.091139]]]}}, {"type": "Feature", "properties": {"grid_id": 914567, "fire_probability": 1.0, "risk_label": "ACTIVE_FIRE", "p_unet": 0.1, "p_low": 0.074, "p_high": 0.125}, "geometry": {"type": "Polygon", "coordinates": [[[-122.0153, 37.090998], [-122.004465, 37.090857], [-122.004294, 37.09987], [-122.01513, 37.100011], [-122.0153, 37.090998]]]}}, {"type": "Feature", "properties": {"grid_id": 915555, "fire_probability": 1.0, "risk_label": "ACTIVE_FIRE", "p_unet": 0.018, "p_low": 0.018, "p_high": 0.033}, "geometry": {"type": "Polygon", "coordinates": [[[-122.145483, 37.083604], [-122.134649, 37.083475], [-122.134492, 37.092489], [-122.145328, 37.092618], [-122.145483, 37.083604]]]}}, {"type": "Feature", "properties": {"grid_id": 915556, "fire_probability": 1.0, "risk_label": "ACTIVE_FIRE", "p_unet": 0.01, "p_low": 0.01, "p_high": 0.028}, "geometry": {"type": "Polygon", "coordinates": [[[-122.134649, 37.083475], [-122.123814, 37.083345], [-122.123657, 37.092358], [-122.134492, 37.092489], [-122.134649, 37.083475]]]}}, {"type": "Feature", "properties": {"grid_id": 915558, "fire_probability": 1.0, "risk_label": "ACTIVE_FIRE", "p_unet": 0.012, "p_low": 0.012, "p_high": 0.033}, "geometry": {"type": "Polygon", "coordinates": [[[-122.112979, 37.083213], [-122.102145, 37.083081], [-122.101985, 37.092095], [-122.112821, 37.092227], [-122.112979, 37.083213]]]}}, {"type": "Feature", "properties": {"grid_id": 915559, "fire_probability": 1.0, "risk_label": "ACTIVE_FIRE", "p_unet": 0.031, "p_low": 0.031, "p_high": 0.033}, "geometry": {"type": "Polygon", "coordinates": [[[-122.102145, 37.083081], [-122.09131, 37.082948], [-122.091149, 37.091961], [-122.101985, 37.092095], [-122.102145, 37.083081]]]}}, {"type": "Feature", "properties": {"grid_id": 915560, "fire_probability": 1.0, "risk_label": "ACTIVE_FIRE", "p_unet": 0.031, "p_low": 0.031, "p_high": 0.037}, "geometry": {"type": "Polygon", "coordinates": [[[-122.09131, 37.082948], [-122.080476, 37.082813], [-122.080314, 37.091827], [-122.091149, 37.091961], [-122.09131, 37.082948]]]}}, {"type": "Feature", "properties": {"grid_id": 915561, "fire_probability": 1.0, "risk_label": "ACTIVE_FIRE", "p_unet": 0.077, "p_low": 0.037, "p_high": 0.077}, "geometry": {"type": "Polygon", "coordinates": [[[-122.080476, 37.082813], [-122.069641, 37.082678], [-122.069478, 37.091691], [-122.080314, 37.091827], [-122.080476, 37.082813]]]}}, {"type": "Feature", "properties": {"grid_id": 915562, "fire_probability": 1.0, "risk_label": "ACTIVE_FIRE", "p_unet": 0.07, "p_low": 0.042, "p_high": 0.07}, "geometry": {"type": "Polygon", "coordinates": [[[-122.069641, 37.082678], [-122.058807, 37.082541], [-122.058642, 37.091555], [-122.069478, 37.091691], [-122.069641, 37.082678]]]}}, {"type": "Feature", "properties": {"grid_id": 915563, "fire_probability": 1.0, "risk_label": "ACTIVE_FIRE", "p_unet": 0.087, "p_low": 0.058, "p_high": 0.087}, "geometry": {"type": "Polygon", "coordinates": [[[-122.058807, 37.082541], [-122.047973, 37.082404], [-122.047807, 37.091417], [-122.058642, 37.091555], [-122.058807, 37.082541]]]}}, {"type": "Feature", "properties": {"grid_id": 915564, "fire_probability": 1.0, "risk_label": "ACTIVE_FIRE", "p_unet": 0.098, "p_low": 0.07, "p_high": 0.098}, "geometry": {"type": "Polygon", "coordinates": [[[-122.047973, 37.082404], [-122.037138, 37.082265], [-122.036971, 37.091278], [-122.047807, 37.091417], [-122.047973, 37.082404]]]}}, {"type": "Feature", "properties": {"grid_id": 915565, "fire_probability": 1.0, "risk_label": "ACTIVE_FIRE", "p_unet": 0.125, "p_low": 0.074, "p_high": 0.125}, "geometry": {"type": "Polygon", "coordinates": [[[-122.037138, 37.082265], [-122.026304, 37.082125], [-122.026136, 37.091139], [-122.036971, 37.091278], [-122.037138, 37.082265]]]}}, {"type": "Feature", "properties": {"grid_id": 915566, "fire_probability": 1.0, "risk_label": "ACTIVE_FIRE", "p_unet": 0.105, "p_low": 0.066, "p_high": 0.105}, "geometry": {"type": "Polygon", "coordinates": [[[-122.026304, 37.082125], [-122.01547, 37.081985], [-122.0153, 37.090998], [-122.026136, 37.091139], [-122.026304, 37.082125]]]}}, {"type": "Feature", "properties": {"grid_id": 915567, "fire_probability": 1.0, "risk_label": "ACTIVE_FIRE", "p_unet": 0.066, "p_low": 0.056, "p_high": 0.066}, "geometry": {"type": "Polygon", "coordinates": [[[-122.01547, 37.081985], [-122.004636, 37.081843], [-122.004465, 37.090857], [-122.0153, 37.090998], [-122.01547, 37.081985]]]}}, {"type": "Feature", "properties": {"grid_id": 916550, "fire_probability": 0.074, "risk_label": "MODERATE_RISK", "p_unet": 0.074, "p_low": 0.074, "p_high": 0.074}, "geometry": {"type": "Polygon", "coordinates": [[[-122.199805, 37.075222], [-122.188972, 37.075098], [-122.188822, 37.084111], [-122.199657, 37.084235], [-122.199805, 37.075222]]]}}, {"type": "Feature", "properties": {"grid_id": 916551, "fire_probability": 1.0, "risk_label": "ACTIVE_FIRE", "p_unet": 0.1, "p_low": 0.1, "p_high": 0.108}, "geometry": {"type": "Polygon", "coordinates": [[[-122.188972, 37.075098], [-122.178138, 37.074972], [-122.177987, 37.083986], [-122.188822, 37.084111], [-122.188972, 37.075098]]]}}, {"type": "Feature", "properties": {"grid_id": 916552, "fire_probability": 1.0, "risk_label": "ACTIVE_FIRE", "p_unet": 0.077, "p_low": 0.077, "p_high": 0.108}, "geometry": {"type": "Polygon", "coordinates": [[[-122.178138, 37.074972], [-122.167305, 37.074846], [-122.167153, 37.08386], [-122.177987, 37.083986], [-122.178138, 37.074972]]]}}, {"type": "Feature", "properties": {"grid_id": 916553, "fire_probability": 1.0, "risk_label": "ACTIVE_FIRE", "p_unet": 0.074, "p_low": 0.074, "p_high": 0.087}, "geometry": {"type": "Polygon", "coordinates": [[[-122.167305, 37.074846], [-122.156471, 37.074719], [-122.156318, 37.083733], [-122.167153, 37.08386], [-122.167305, 37.074846]]]}}, {"type": "Feature", "properties": {"grid_id": 916554, "fire_probability": 1.0, "risk_label": "ACTIVE_FIRE", "p_unet": 0.037, "p_low": 0.037, "p_high": 0.07}, "geometry": {"type": "Polygon", "coordinates": [[[-122.156471, 37.074719], [-122.145638, 37.074591], [-122.145483, 37.083604], [-122.156318, 37.083733], [-122.156471, 37.074719]]]}}, {"type": "Feature", "properties": {"grid_id": 916555, "fire_probability": 1.0, "risk_label": "ACTIVE_FIRE", "p_unet": 0.026, "p_low": 0.026, "p_high": 0.037}, "geometry": {"type": "Polygon", "coordinates": [[[-122.145638, 37.074591], [-122.134805, 37.074462], [-122.134649, 37.083475], [-122.145483, 37.083604], [-122.145638, 37.074591]]]}}, {"type": "Feature", "properties": {"grid_id": 916556, "fire_probability": 1.0, "risk_label": "ACTIVE_FIRE", "p_unet": 0.015, "p_low": 0.015, "p_high": 0.023}, "geometry": {"type": "Polygon", "coordinates": [[[-122.134805, 37.074462], [-122.123971, 37.074331], [-122.123814, 37.083345], [-122.134649, 37.083475], [-122.134805, 37.074462]]]}}, {"type": "Feature", "properties": {"grid_id": 916557, "fire_probability": 1.0, "risk_label": "ACTIVE_FIRE", "p_unet": 0.017, "p_low": 0.016, "p_high": 0.023}, "geometry": {"type": "Polygon", "coordinates": [[[-122.123971, 37.074331], [-122.113138, 37.0742], [-122.112979, 37.083213], [-122.123814, 37.083345], [-122.123971, 37.074331]]]}}, {"type": "Feature", "properties": {"grid_id": 916558, "fire_probability": 1.0, "risk_label": "ACTIVE_FIRE", "p_unet": 0.012, "p_low": 0.012, "p_high": 0.031}, "geometry": {"type": "Polygon", "coordinates": [[[-122.113138, 37.0742], [-122.102305, 37.074067], [-122.102145, 37.083081], [-122.112979, 37.083213], [-122.113138, 37.0742]]]}}, {"type": "Feature", "properties": {"grid_id": 916559, "fire_probability": 1.0, "risk_label": "ACTIVE_FIRE", "p_unet": 0.021, "p_low": 0.021, "p_high": 0.031}, "geometry": {"type": "Polygon", "coordinates": [[[-122.102305, 37.074067], [-122.091471, 37.073934], [-122.09131, 37.082948], [-122.102145, 37.083081], [-122.102305, 37.074067]]]}}, {"type": "Feature", "properties": {"grid_id": 916560, "fire_probability": 1.0, "risk_label": "ACTIVE_FIRE", "p_unet": 0.016, "p_low": 0.016, "p_high": 0.031}, "geometry": {"type": "Polygon", "coordinates": [[[-122.091471, 37.073934], [-122.080638, 37.0738], [-122.080476, 37.082813], [-122.09131, 37.082948], [-122.091471, 37.073934]]]}}, {"type": "Feature", "properties": {"grid_id": 916561, "fire_probability": 1.0, "risk_label": "ACTIVE_FIRE", "p_unet": 0.019, "p_low": 0.019, "p_high": 0.033}, "geometry": {"type": "Polygon", "coordinates": [[[-122.080638, 37.0738], [-122.069805, 37.073664], [-122.069641, 37.082678], [-122.080476, 37.082813], [-122.080638, 37.0738]]]}}, {"type": "Feature", "properties": {"grid_id": 916562, "fire_probability": 1.0, "risk_label": "ACTIVE_FIRE", "p_unet": 0.02, "p_low": 0.02, "p_high": 0.031}, "geometry": {"type": "Polygon", "coordinates": [[[-122.069805, 37.073664], [-122.058972, 37.073528], [-122.058807, 37.082541], [-122.069641, 37.082678], [-122.069805, 37.073664]]]}}, {"type": "Feature", "properties": {"grid_id": 916563, "fire_probability": 1.0, "risk_label": "ACTIVE_FIRE", "p_unet": 0.018, "p_low": 0.018, "p_high": 0.037}, "geometry": {"type": "Polygon", "coordinates": [[[-122.058972, 37.073528], [-122.048139, 37.07339], [-122.047973, 37.082404], [-122.058807, 37.082541], [-122.058972, 37.073528]]]}}, {"type": "Feature", "properties": {"grid_id": 916564, "fire_probability": 1.0, "risk_label": "ACTIVE_FIRE", "p_unet": 0.034, "p_low": 0.034, "p_high": 0.044}, "geometry": {"type": "Polygon", "coordinates": [[[-122.048139, 37.07339], [-122.037306, 37.073252], [-122.037138, 37.082265], [-122.047973, 37.082404], [-122.048139, 37.07339]]]}}, {"type": "Feature", "properties": {"grid_id": 916565, "fire_probability": 1.0, "risk_label": "ACTIVE_FIRE", "p_unet": 0.031, "p_low": 0.031, "p_high": 0.058}, "geometry": {"type": "Polygon", "coordinates": [[[-122.037306, 37.073252], [-122.026472, 37.073112], [-122.026304, 37.082125], [-122.037138, 37.082265], [-122.037306, 37.073252]]]}}, {"type": "Feature", "properties": {"grid_id": 916566, "fire_probability": 1.0, "risk_label": "ACTIVE_FIRE", "p_unet": 0.034, "p_low": 0.031, "p_high": 0.058}, "geometry": {"type": "Polygon", "coordinates": [[[-122.026472, 37.073112], [-122.015639, 37.072971], [-122.01547, 37.081985], [-122.026304, 37.082125], [-122.026472, 37.073112]]]}}, {"type": "Feature", "properties": {"grid_id": 916567, "fire_probability": 1.0, "risk_label": "ACTIVE_FIRE", "p_unet": 0.017, "p_low": 0.015, "p_high": 0.04}, "geometry": {"type": "Polygon", "coordinates": [[[-122.015639, 37.072971], [-122.004807, 37.07283], [-122.004636, 37.081843], [-122.01547, 37.081985], [-122.015639, 37.072971]]]}}, {"type": "Feature", "properties": {"grid_id": 916568, "fire_probability": 1.0, "risk_label": "ACTIVE_FIRE", "p_unet": 0.006, "p_low": 0.006, "p_high": 0.026}, "geometry": {"type": "Polygon", "coordinates": [[[-122.004807, 37.07283], [-121.993974, 37.072687], [-121.993802, 37.081701], [-122.004636, 37.081843], [-122.004807, 37.07283]]]}}, {"type": "Feature", "properties": {"grid_id": 917549, "fire_probability": 0.052, "risk_label": "MODERATE_RISK", "p_unet": 0.052, "p_low": 0.048, "p_high": 0.052}, "geometry": {"type": "Polygon", "coordinates": [[[-122.210786, 37.066331], [-122.199954, 37.066208], [-122.199805, 37.075222], [-122.210639, 37.075345], [-122.210786, 37.066331]]]}}, {"type": "Feature", "properties": {"grid_id": 917550, "fire_probability": 1.0, "risk_label": "ACTIVE_FIRE", "p_unet": 0.083, "p_low": 0.074, "p_high": 0.083}, "geometry": {"type": "Polygon", "coordinates": [[[-122.199954, 37.066208], [-122.189122, 37.066084], [-122.188972, 37.075098], [-122.199805, 37.075222], [-122.199954, 37.066208]]]}}, {"type": "Feature", "properties": {"grid_id": 917551, "fire_probability": 1.0, "risk_label": "ACTIVE_FIRE", "p_unet": 0.1, "p_low": 0.083, "p_high": 0.111}, "geometry": {"type": "Polygon", "coordinates": [[[-122.189122, 37.066084], [-122.178289, 37.065959], [-122.178138, 37.074972], [-122.188972, 37.075098], [-122.189122, 37.066084]]]}}, {"type": "Feature", "properties": {"grid_id": 917552, "fire_probability": 1.0, "risk_label": "ACTIVE_FIRE", "p_unet": 0.077, "p_low": 0.074, "p_high": 0.111}, "geometry": {"type": "Polygon", "coordinates": [[[-122.178289, 37.065959], [-122.167457, 37.065833], [-122.167305, 37.074846], [-122.178138, 37.074972], [-122.178289, 37.065959]]]}}, {"type": "Feature", "properties": {"grid_id": 917553, "fire_probability": 1.0, "risk_label": "ACTIVE_FIRE", "p_unet": 0.058, "p_low": 0.05, "p_high": 0.087}, "geometry": {"type": "Polygon", "coordinates": [[[-122.167457, 37.065833], [-122.156625, 37.065705], [-122.156471, 37.074719], [-122.167305, 37.074846], [-122.167457, 37.065833]]]}}, {"type": "Feature", "properties": {"grid_id": 917554, "fire_probability": 1.0, "risk_label": "ACTIVE_FIRE", "p_unet": 0.037, "p_low": 0.034, "p_high": 0.059}, "geometry": {"type": "Polygon", "coordinates": [[[-122.156625, 37.065705], [-122.145793, 37.065577], [-122.145638, 37.074591], [-122.156471, 37.074719], [-122.156625, 37.065705]]]}}, {"type": "Feature", "properties": {"grid_id": 917555, "fire_probability": 1.0, "risk_label": "ACTIVE_FIRE", "p_unet": 0.021, "p_low": 0.018, "p_high": 0.037}, "geometry": {"type": "Polygon", "coordinates": [[[-122.145793, 37.065577], [-122.134961, 37.065448], [-122.134805, 37.074462], [-122.145638, 37.074591], [-122.145793, 37.065577]]]}}, {"type": "Feature", "properties": {"grid_id": 917556, "fire_probability": 1.0, "risk_label": "ACTIVE_FIRE", "p_unet": 0.012, "p_low": 0.012, "p_high": 0.02}, "geometry": {"type": "Polygon", "coordinates": [[[-122.134961, 37.065448], [-122.124128, 37.065318], [-122.123971, 37.074331], [-122.134805, 37.074462], [-122.134961, 37.065448]]]}}, {"type": "Feature", "properties": {"grid_id": 917557, "fire_probability": 1.0, "risk_label": "ACTIVE_FIRE", "p_unet": 0.015, "p_low": 0.012, "p_high": 0.018}, "geometry": {"type": "Polygon", "coordinates": [[[-122.124128, 37.065318], [-122.113296, 37.065186], [-122.113138, 37.0742], [-122.123971, 37.074331], [-122.124128, 37.065318]]]}}, {"type": "Feature", "properties": {"grid_id": 917558, "fire_probability": 1.0, "risk_label": "ACTIVE_FIRE", "p_unet": 0.009, "p_low": 0.009, "p_high": 0.024}, "geometry": {"type": "Polygon", "coordinates": [[[-122.113296, 37.065186], [-122.102464, 37.065054], [-122.102305, 37.074067], [-122.113138, 37.0742], [-122.113296, 37.065186]]]}}, {"type": "Feature", "properties": {"grid_id": 917559, "fire_probability": 1.0, "risk_label": "ACTIVE_FIRE", "p_unet": 0.011, "p_low": 0.011, "p_high": 0.023}, "geometry": {"type": "Polygon", "coordinates": [[[-122.102464, 37.065054], [-122.091632, 37.06492], [-122.091471, 37.073934], [-122.102305, 37.074067], [-122.102464, 37.065054]]]}}, {"type": "Feature", "properties": {"grid_id": 917560, "fire_probability": 1.0, "risk_label": "ACTIVE_FIRE", "p_unet": 0.006, "p_low": 0.006, "p_high": 0.021}, "geometry": {"type": "Polygon", "coordinates": [[[-122.091632, 37.06492], [-122.0808, 37.064786], [-122.080638, 37.0738], [-122.091471, 37.073934], [-122.091632, 37.06492]]]}}, {"type": "Feature", "properties": {"grid_id": 917561, "fire_probability": 1.0, "risk_label": "ACTIVE_FIRE", "p_unet": 0.009, "p_low": 0.009, "p_high": 0.018}, "geometry": {"type": "Polygon", "coordinates": [[[-122.0808, 37.064786], [-122.069968, 37.064651], [-122.069805, 37.073664], [-122.080638, 37.0738], [-122.0808, 37.064786]]]}}, {"type": "Feature", "properties": {"grid_id": 917562, "fire_probability": 1.0, "risk_label": "ACTIVE_FIRE", "p_unet": 0.006, "p_low": 0.006, "p_high": 0.018}, "geometry": {"type": "Polygon", "coordinates": [[[-122.069968, 37.064651], [-122.059136, 37.064514], [-122.058972, 37.073528], [-122.069805, 37.073664], [-122.069968, 37.064651]]]}}, {"type": "Feature", "properties": {"grid_id": 917563, "fire_probability": 1.0, "risk_label": "ACTIVE_FIRE", "p_unet": 0.009, "p_low": 0.009, "p_high": 0.021}, "geometry": {"type": "Polygon", "coordinates": [[[-122.059136, 37.064514], [-122.048304, 37.064377], [-122.048139, 37.07339], [-122.058972, 37.073528], [-122.059136, 37.064514]]]}}, {"type": "Feature", "properties": {"grid_id": 917564, "fire_probability": 1.0, "risk_label": "ACTIVE_FIRE", "p_unet": 0.006, "p_low": 0.006, "p_high": 0.026}, "geometry": {"type": "Polygon", "coordinates": [[[-122.048304, 37.064377], [-122.037473, 37.064238], [-122.037306, 37.073252], [-122.048139, 37.07339], [-122.048304, 37.064377]]]}}, {"type": "Feature", "properties": {"grid_id": 917565, "fire_probability": 1.0, "risk_label": "ACTIVE_FIRE", "p_unet": 0.009, "p_low": 0.009, "p_high": 0.026}, "geometry": {"type": "Polygon", "coordinates": [[[-122.037473, 37.064238], [-122.026641, 37.064098], [-122.026472, 37.073112], [-122.037306, 37.073252], [-122.037473, 37.064238]]]}}, {"type": "Feature", "properties": {"grid_id": 917566, "fire_probability": 1.0, "risk_label": "ACTIVE_FIRE", "p_unet": 0.006, "p_low": 0.006, "p_high": 0.033}, "geometry": {"type": "Polygon", "coordinates": [[[-122.026641, 37.064098], [-122.015809, 37.063958], [-122.015639, 37.072971], [-122.026472, 37.073112], [-122.026641, 37.064098]]]}}, {"type": "Feature", "properties": {"grid_id": 917567, "fire_probability": 1.0, "risk_label": "ACTIVE_FIRE", "p_unet": 0.006, "p_low": 0.006, "p_high": 0.019}, "geometry": {"type": "Polygon", "coordinates": [[[-122.015809, 37.063958], [-122.004977, 37.063816], [-122.004807, 37.07283], [-122.015639, 37.072971], [-122.015809, 37.063958]]]}}, {"type": "Feature", "properties": {"grid_id": 917568, "fire_probability": 1.0, "risk_label": "ACTIVE_FIRE", "p_unet": 0.006, "p_low": 0.006, "p_high": 0.017}, "geometry": {"type": "Polygon", "coordinates": [[[-122.004977, 37.063816], [-121.994146, 37.063674], [-121.993974, 37.072687], [-122.004807, 37.07283], [-122.004977, 37.063816]]]}}, {"type": "Feature", "properties": {"grid_id": 918551, "fire_probability": 1.0, "risk_label": "ACTIVE_FIRE", "p_unet": 0.033, "p_low": 0.033, "p_high": 0.066}, "geometry": {"type": "Polygon", "coordinates": [[[-122.189271, 37.05707], [-122.17844, 37.056945], [-122.178289, 37.065959], [-122.189122, 37.066084], [-122.189271, 37.05707]]]}}, {"type": "Feature", "properties": {"grid_id": 918552, "fire_probability": 1.0, "risk_label": "ACTIVE_FIRE", "p_unet": 0.04, "p_low": 0.033, "p_high": 0.058}, "geometry": {"type": "Polygon", "coordinates": [[[-122.17844, 37.056945], [-122.167609, 37.056819], [-122.167457, 37.065833], [-122.178289, 37.065959], [-122.17844, 37.056945]]]}}, {"type": "Feature", "properties": {"grid_id": 918553, "fire_probability": 1.0, "risk_label": "ACTIVE_FIRE", "p_unet": 0.023, "p_low": 0.018, "p_high": 0.052}, "geometry": {"type": "Polygon", "coordinates": [[[-122.167609, 37.056819], [-122.156778, 37.056692], [-122.156625, 37.065705], [-122.167457, 37.065833], [-122.167609, 37.056819]]]}}, {"type": "Feature", "properties": {"grid_id": 918554, "fire_probability": 1.0, "risk_label": "ACTIVE_FIRE", "p_unet": 0.017, "p_low": 0.012, "p_high": 0.037}, "geometry": {"type": "Polygon", "coordinates": [[[-122.156778, 37.056692], [-122.145947, 37.056563], [-122.145793, 37.065577], [-122.156625, 37.065705], [-122.156778, 37.056692]]]}}, {"type": "Feature", "properties": {"grid_id": 918555, "fire_probability": 1.0, "risk_label": "ACTIVE_FIRE", "p_unet": 0.012, "p_low": 0.007, "p_high": 0.031}, "geometry": {"type": "Polygon", "coordinates": [[[-122.145947, 37.056563], [-122.135116, 37.056434], [-122.134961, 37.065448], [-122.145793, 37.065577], [-122.145947, 37.056563]]]}}, {"type": "Feature", "properties": {"grid_id": 918556, "fire_probability": 1.0, "risk_label": "ACTIVE_FIRE", "p_unet": 0.009, "p_low": 0.008, "p_high": 0.018}, "geometry": {"type": "Polygon", "coordinates": [[[-122.135116, 37.056434], [-122.124286, 37.056304], [-122.124128, 37.065318], [-122.134961, 37.065448], [-122.135116, 37.056434]]]}}, {"type": "Feature", "properties": {"grid_id": 918557, "fire_probability": 1.0, "risk_label": "ACTIVE_FIRE", "p_unet": 0.012, "p_low": 0.009, "p_high": 0.012}, "geometry": {"type": "Polygon", "coordinates": [[[-122.124286, 37.056304], [-122.113455, 37.056172], [-122.113296, 37.065186], [-122.124128, 37.065318], [-122.124286, 37.056304]]]}}, {"type": "Feature", "properties": {"grid_id": 918558, "fire_probability": 1.0, "risk_label": "ACTIVE_FIRE", "p_unet": 0.009, "p_low": 0.009, "p_high": 0.01}, "geometry": {"type": "Polygon", "coordinates": [[[-122.113455, 37.056172], [-122.102624, 37.05604], [-122.102464, 37.065054], [-122.113296, 37.065186], [-122.113455, 37.056172]]]}}, {"type": "Feature", "properties": {"grid_id": 918559, "fire_probability": 1.0, "risk_label": "ACTIVE_FIRE", "p_unet": 0.009, "p_low": 0.009, "p_high": 0.009}, "geometry": {"type": "Polygon", "coordinates": [[[-122.102624, 37.05604], [-122.091793, 37.055907], [-122.091632, 37.06492], [-122.102464, 37.065054], [-122.102624, 37.05604]]]}}, {"type": "Feature", "properties": {"grid_id": 918560, "fire_probability": 1.0, "risk_label": "ACTIVE_FIRE", "p_unet": 0.006, "p_low": 0.006, "p_high": 0.009}, "geometry": {"type": "Polygon", "coordinates": [[[-122.091793, 37.055907], [-122.080962, 37.055772], [-122.0808, 37.064786], [-122.091632, 37.06492], [-122.091793, 37.055907]]]}}, {"type": "Feature", "properties": {"grid_id": 918561, "fire_probability": 1.0, "risk_label": "ACTIVE_FIRE", "p_unet": 0.006, "p_low": 0.006, "p_high": 0.009}, "geometry": {"type": "Polygon", "coordinates": [[[-122.080962, 37.055772], [-122.070132, 37.055637], [-122.069968, 37.064651], [-122.0808, 37.064786], [-122.080962, 37.055772]]]}}, {"type": "Feature", "properties": {"grid_id": 918562, "fire_probability": 1.0, "risk_label": "ACTIVE_FIRE", "p_unet": 0.006, "p_low": 0.006, "p_high": 0.007}, "geometry": {"type": "Polygon", "coordinates": [[[-122.070132, 37.055637], [-122.059301, 37.0555], [-122.059136, 37.064514], [-122.069968, 37.064651], [-122.070132, 37.055637]]]}}, {"type": "Feature", "properties": {"grid_id": 918563, "fire_probability": 1.0, "risk_label": "ACTIVE_FIRE", "p_unet": 0.006, "p_low": 0.006, "p_high": 0.007}, "geometry": {"type": "Polygon", "coordinates": [[[-122.059301, 37.0555], [-122.04847, 37.055363], [-122.048304, 37.064377], [-122.059136, 37.064514], [-122.059301, 37.0555]]]}}, {"type": "Feature", "properties": {"grid_id": 918564, "fire_probability": 1.0, "risk_label": "ACTIVE_FIRE", "p_unet": 0.006, "p_low": 0.006, "p_high": 0.006}, "geometry": {"type": "Polygon", "coordinates": [[[-122.04847, 37.055363], [-122.03764, 37.055224], [-122.037473, 37.064238], [-122.048304, 37.064377], [-122.04847, 37.055363]]]}}, {"type": "Feature", "properties": {"grid_id": 918565, "fire_probability": 1.0, "risk_label": "ACTIVE_FIRE", "p_unet": 0.006, "p_low": 0.006, "p_high": 0.006}, "geometry": {"type": "Polygon", "coordinates": [[[-122.03764, 37.055224], [-122.026809, 37.055085], [-122.026641, 37.064098], [-122.037473, 37.064238], [-122.03764, 37.055224]]]}}, {"type": "Feature", "properties": {"grid_id": 918566, "fire_probability": 1.0, "risk_label": "ACTIVE_FIRE", "p_unet": 0.006, "p_low": 0.006, "p_high": 0.006}, "geometry": {"type": "Polygon", "coordinates": [[[-122.026809, 37.055085], [-122.015979, 37.054944], [-122.015809, 37.063958], [-122.026641, 37.064098], [-122.026809, 37.055085]]]}}, {"type": "Feature", "properties": {"grid_id": 918567, "fire_probability": 1.0, "risk_label": "ACTIVE_FIRE", "p_unet": 0.006, "p_low": 0.006, "p_high": 0.006}, "geometry": {"type": "Polygon", "coordinates": [[[-122.015979, 37.054944], [-122.005148, 37.054803], [-122.004977, 37.063816], [-122.015809, 37.063958], [-122.015979, 37.054944]]]}}, {"type": "Feature", "properties": {"grid_id": 918568, "fire_probability": 1.0, "risk_label": "ACTIVE_FIRE", "p_unet": 0.006, "p_low": 0.006, "p_high": 0.006}, "geometry": {"type": "Polygon", "coordinates": [[[-122.005148, 37.054803], [-121.994318, 37.05466], [-121.994146, 37.063674], [-122.004977, 37.063816], [-122.005148, 37.054803]]]}}, {"type": "Feature", "properties": {"grid_id": 919552, "fire_probability": 1.0, "risk_label": "ACTIVE_FIRE", "p_unet": 0.011, "p_low": 0.008, "p_high": 0.026}, "geometry": {"type": "Polygon", "coordinates": [[[-122.178591, 37.047931], [-122.167762, 37.047805], [-122.167609, 37.056819], [-122.17844, 37.056945], [-122.178591, 37.047931]]]}}, {"type": "Feature", "properties": {"grid_id": 919553, "fire_probability": 1.0, "risk_label": "ACTIVE_FIRE", "p_unet": 0.017, "p_low": 0.006, "p_high": 0.018}, "geometry": {"type": "Polygon", "coordinates": [[[-122.167762, 37.047805], [-122.156932, 37.047678], [-122.156778, 37.056692], [-122.167609, 37.056819], [-122.167762, 37.047805]]]}}, {"type": "Feature", "properties": {"grid_id": 919554, "fire_probability": 1.0, "risk_label": "ACTIVE_FIRE", "p_unet": 0.006, "p_low": 0.006, "p_high": 0.018}, "geometry": {"type": "Polygon", "coordinates": [[[-122.156932, 37.047678], [-122.146102, 37.047549], [-122.145947, 37.056563], [-122.156778, 37.056692], [-122.156932, 37.047678]]]}}, {"type": "Feature", "properties": {"grid_id": 919555, "fire_probability": 1.0, "risk_label": "ACTIVE_FIRE", "p_unet": 0.01, "p_low": 0.006, "p_high": 0.01}, "geometry": {"type": "Polygon", "coordinates": [[[-122.146102, 37.047549], [-122.135272, 37.04742], [-122.135116, 37.056434], [-122.145947, 37.056563], [-122.146102, 37.047549]]]}}, {"type": "Feature", "properties": {"grid_id": 919556, "fire_probability": 1.0, "risk_label": "ACTIVE_FIRE", "p_unet": 0.006, "p_low": 0.006, "p_high": 0.009}, "geometry": {"type": "Polygon", "coordinates": [[[-122.135272, 37.04742], [-122.124443, 37.04729], [-122.124286, 37.056304], [-122.135116, 37.056434], [-122.135272, 37.04742]]]}}, {"type": "Feature", "properties": {"grid_id": 919557, "fire_probability": 1.0, "risk_label": "ACTIVE_FIRE", "p_unet": 0.006, "p_low": 0.006, "p_high": 0.006}, "geometry": {"type": "Polygon", "coordinates": [[[-122.124443, 37.04729], [-122.113613, 37.047159], [-122.113455, 37.056172], [-122.124286, 37.056304], [-122.124443, 37.04729]]]}}, {"type": "Feature", "properties": {"grid_id": 919560, "fire_probability": 1.0, "risk_label": "ACTIVE_FIRE", "p_unet": 0.006, "p_low": 0.006, "p_high": 0.006}, "geometry": {"type": "Polygon", "coordinates": [[[-122.091954, 37.046893], [-122.081124, 37.046759], [-122.080962, 37.055772], [-122.091793, 37.055907], [-122.091954, 37.046893]]]}}, {"type": "Feature", "properties": {"grid_id": 919561, "fire_probability": 1.0, "risk_label": "ACTIVE_FIRE", "p_unet": 0.006, "p_low": 0.006, "p_high": 0.006}, "geometry": {"type": "Polygon", "coordinates": [[[-122.081124, 37.046759], [-122.070295, 37.046623], [-122.070132, 37.055637], [-122.080962, 37.055772], [-122.081124, 37.046759]]]}}, {"type": "Feature", "properties": {"grid_id": 919562, "fire_probability": 1.0, "risk_label": "ACTIVE_FIRE", "p_unet": 0.006, "p_low": 0.006, "p_high": 0.006}, "geometry": {"type": "Polygon", "coordinates": [[[-122.070295, 37.046623], [-122.059466, 37.046487], [-122.059301, 37.0555], [-122.070132, 37.055637], [-122.070295, 37.046623]]]}}, {"type": "Feature", "properties": {"grid_id": 919563, "fire_probability": 1.0, "risk_label": "ACTIVE_FIRE", "p_unet": 0.006, "p_low": 0.006, "p_high": 0.006}, "geometry": {"type": "Polygon", "coordinates": [[[-122.059466, 37.046487], [-122.048636, 37.046349], [-122.04847, 37.055363], [-122.059301, 37.0555], [-122.059466, 37.046487]]]}}, {"type": "Feature", "properties": {"grid_id": 919564, "fire_probability": 1.0, "risk_label": "ACTIVE_FIRE", "p_unet": 0.006, "p_low": 0.006, "p_high": 0.006}, "geometry": {"type": "Polygon", "coordinates": [[[-122.048636, 37.046349], [-122.037807, 37.046211], [-122.03764, 37.055224], [-122.04847, 37.055363], [-122.048636, 37.046349]]]}}, {"type": "Feature", "properties": {"grid_id": 919565, "fire_probability": 1.0, "risk_label": "ACTIVE_FIRE", "p_unet": 0.006, "p_low": 0.006, "p_high": 0.006}, "geometry": {"type": "Polygon", "coordinates": [[[-122.037807, 37.046211], [-122.026977, 37.046071], [-122.026809, 37.055085], [-122.03764, 37.055224], [-122.037807, 37.046211]]]}}, {"type": "Feature", "properties": {"grid_id": 919566, "fire_probability": 1.0, "risk_label": "ACTIVE_FIRE", "p_unet": 0.003, "p_low": 0.003, "p_high": 0.006}, "geometry": {"type": "Polygon", "coordinates": [[[-122.026977, 37.046071], [-122.016148, 37.045931], [-122.015979, 37.054944], [-122.026809, 37.055085], [-122.026977, 37.046071]]]}}, {"type": "Feature", "properties": {"grid_id": 919567, "fire_probability": 1.0, "risk_label": "ACTIVE_FIRE", "p_unet": 0.003, "p_low": 0.003, "p_high": 0.006}, "geometry": {"type": "Polygon", "coordinates": [[[-122.016148, 37.045931], [-122.005319, 37.045789], [-122.005148, 37.054803], [-122.015979, 37.054944], [-122.016148, 37.045931]]]}}, {"type": "Feature", "properties": {"grid_id": 919568, "fire_probability": 1.0, "risk_label": "ACTIVE_FIRE", "p_unet": 0.002, "p_low": 0.002, "p_high": 0.006}, "geometry": {"type": "Polygon", "coordinates": [[[-122.005319, 37.045789], [-121.99449, 37.045646], [-121.994318, 37.05466], [-122.005148, 37.054803], [-122.005319, 37.045789]]]}}, {"type": "Feature", "properties": {"grid_id": 920552, "fire_probability": 1.0, "risk_label": "ACTIVE_FIRE", "p_unet": 0.006, "p_low": 0.006, "p_high": 0.012}, "geometry": {"type": "Polygon", "coordinates": [[[-122.178742, 37.038917], [-122.167914, 37.038791], [-122.167762, 37.047805], [-122.178591, 37.047931], [-122.178742, 37.038917]]]}}, {"type": "Feature", "properties": {"grid_id": 920553, "fire_probability": 1.0, "risk_label": "ACTIVE_FIRE", "p_unet": 0.006, "p_low": 0.006, "p_high": 0.012}, "geometry": {"type": "Polygon", "coordinates": [[[-122.167914, 37.038791], [-122.157085, 37.038664], [-122.156932, 37.047678], [-122.167762, 37.047805], [-122.167914, 37.038791]]]}}, {"type": "Feature", "properties": {"grid_id": 920554, "fire_probability": 1.0, "risk_label": "ACTIVE_FIRE", "p_unet": 0.006, "p_low": 0.006, "p_high": 0.01}, "geometry": {"type": "Polygon", "coordinates": [[[-122.157085, 37.038664], [-122.146257, 37.038535], [-122.146102, 37.047549], [-122.156932, 37.047678], [-122.157085, 37.038664]]]}}, {"type": "Feature", "properties": {"grid_id": 920555, "fire_probability": 1.0, "risk_label": "ACTIVE_FIRE", "p_unet": 0.006, "p_low": 0.006, "p_high": 0.009}, "geometry": {"type": "Polygon", "coordinates": [[[-122.146257, 37.038535], [-122.135428, 37.038406], [-122.135272, 37.04742], [-122.146102, 37.047549], [-122.146257, 37.038535]]]}}, {"type": "Feature", "properties": {"grid_id": 920556, "fire_probability": 1.0, "risk_label": "ACTIVE_FIRE", "p_unet": 0.006, "p_low": 0.006, "p_high": 0.006}, "geometry": {"type": "Polygon", "coordinates": [[[-122.135428, 37.038406], [-122.1246, 37.038276], [-122.124443, 37.04729], [-122.135272, 37.04742], [-122.135428, 37.038406]]]}}, {"type": "Feature", "properties": {"grid_id": 920557, "fire_probability": 1.0, "risk_label": "ACTIVE_FIRE", "p_unet": 0.006, "p_low": 0.006, "p_high": 0.006}, "geometry": {"type": "Polygon", "coordinates": [[[-122.1246, 37.038276], [-122.113771, 37.038145], [-122.113613, 37.047159], [-122.124443, 37.04729], [-122.1246, 37.038276]]]}}, {"type": "Feature", "properties": {"grid_id": 920558, "fire_probability": 1.0, "risk_label": "ACTIVE_FIRE", "p_unet": 0.006, "p_low": 0.006, "p_high": 0.006}, "geometry": {"type": "Polygon", "coordinates": [[[-122.113771, 37.038145], [-122.102943, 37.038012], [-122.102784, 37.047026], [-122.113613, 37.047159], [-122.113771, 37.038145]]]}}, {"type": "Feature", "properties": {"grid_id": 920559, "fire_probability": 1.0, "risk_label": "ACTIVE_FIRE", "p_unet": 0.006, "p_low": 0.006, "p_high": 0.006}, "geometry": {"type": "Polygon", "coordinates": [[[-122.102943, 37.038012], [-122.092115, 37.037879], [-122.091954, 37.046893], [-122.102784, 37.047026], [-122.102943, 37.038012]]]}}, {"type": "Feature", "properties": {"grid_id": 920560, "fire_probability": 1.0, "risk_label": "ACTIVE_FIRE", "p_unet": 0.006, "p_low": 0.006, "p_high": 0.006}, "geometry": {"type": "Polygon", "coordinates": [[[-122.092115, 37.037879], [-122.081287, 37.037745], [-122.081124, 37.046759], [-122.091954, 37.046893], [-122.092115, 37.037879]]]}}, {"type": "Feature", "properties": {"grid_id": 920561, "fire_probability": 1.0, "risk_label": "ACTIVE_FIRE", "p_unet": 0.006, "p_low": 0.006, "p_high": 0.006}, "geometry": {"type": "Polygon", "coordinates": [[[-122.081287, 37.037745], [-122.070458, 37.037609], [-122.070295, 37.046623], [-122.081124, 37.046759], [-122.081287, 37.037745]]]}}, {"type": "Feature", "properties": {"grid_id": 920562, "fire_probability": 1.0, "risk_label": "ACTIVE_FIRE", "p_unet": 0.006, "p_low": 0.006, "p_high": 0.006}, "geometry": {"type": "Polygon", "coordinates": [[[-122.070458, 37.037609], [-122.05963, 37.037473], [-122.059466, 37.046487], [-122.070295, 37.046623], [-122.070458, 37.037609]]]}}, {"type": "Feature", "properties": {"grid_id": 920563, "fire_probability": 1.0, "risk_label": "ACTIVE_FIRE", "p_unet": 0.006, "p_low": 0.006, "p_high": 0.006}, "geometry": {"type": "Polygon", "coordinates": [[[-122.05963, 37.037473], [-122.048802, 37.037335], [-122.048636, 37.046349], [-122.059466, 37.046487], [-122.05963, 37.037473]]]}}, {"type": "Feature", "properties": {"grid_id": 920564, "fire_probability": 1.0, "risk_label": "ACTIVE_FIRE", "p_unet": 0.006, "p_low": 0.006, "p_high": 0.006}, "geometry": {"type": "Polygon", "coordinates": [[[-122.048802, 37.037335], [-122.037974, 37.037197], [-122.037807, 37.046211], [-122.048636, 37.046349], [-122.048802, 37.037335]]]}}, {"type": "Feature", "properties": {"grid_id": 920565, "fire_probability": 1.0, "risk_label": "ACTIVE_FIRE", "p_unet": 0.006, "p_low": 0.006, "p_high": 0.006}, "geometry": {"type": "Polygon", "coordinates": [[[-122.037974, 37.037197], [-122.027146, 37.037057], [-122.026977, 37.046071], [-122.037807, 37.046211], [-122.037974, 37.037197]]]}}, {"type": "Feature", "properties": {"grid_id": 920566, "fire_probability": 1.0, "risk_label": "ACTIVE_FIRE", "p_unet": 0.006, "p_low": 0.006, "p_high": 0.006}, "geometry": {"type": "Polygon", "coordinates": [[[-122.027146, 37.037057], [-122.016318, 37.036917], [-122.016148, 37.045931], [-122.026977, 37.046071], [-122.027146, 37.037057]]]}}, {"type": "Feature", "properties": {"grid_id": 920567, "fire_probability": 1.0, "risk_label": "ACTIVE_FIRE", "p_unet": 0.003, "p_low": 0.003, "p_high": 0.006}, "geometry": {"type": "Polygon", "coordinates": [[[-122.016318, 37.036917], [-122.00549, 37.036775], [-122.005319, 37.045789], [-122.016148, 37.045931], [-122.016318, 37.036917]]]}}, {"type": "Feature", "properties": {"grid_id": 920568, "fire_probability": 1.0, "risk_label": "ACTIVE_FIRE", "p_unet": 0.003, "p_low": 0.003, "p_high": 0.003}, "geometry": {"type": "Polygon", "coordinates": [[[-122.00549, 37.036775], [-121.994662, 37.036633], [-121.99449, 37.045646], [-122.005319, 37.045789], [-122.00549, 37.036775]]]}}, {"type": "Feature", "properties": {"grid_id": 921553, "fire_probability": 1.0, "risk_label": "ACTIVE_FIRE", "p_unet": 0.006, "p_low": 0.006, "p_high": 0.006}, "geometry": {"type": "Polygon", "coordinates": [[[-122.168066, 37.029777], [-122.157239, 37.02965], [-122.157085, 37.038664], [-122.167914, 37.038791], [-122.168066, 37.029777]]]}}, {"type": "Feature", "properties": {"grid_id": 921554, "fire_probability": 1.0, "risk_label": "ACTIVE_FIRE", "p_unet": 0.006, "p_low": 0.006, "p_high": 0.006}, "geometry": {"type": "Polygon", "coordinates": [[[-122.157239, 37.02965], [-122.146411, 37.029521], [-122.146257, 37.038535], [-122.157085, 37.038664], [-122.157239, 37.02965]]]}}, {"type": "Feature", "properties": {"grid_id": 921555, "fire_probability": 1.0, "risk_label": "ACTIVE_FIRE", "p_unet": 0.006, "p_low": 0.006, "p_high": 0.006}, "geometry": {"type": "Polygon", "coordinates": [[[-122.146411, 37.029521], [-122.135584, 37.029392], [-122.135428, 37.038406], [-122.146257, 37.038535], [-122.146411, 37.029521]]]}}, {"type": "Feature", "properties": {"grid_id": 921556, "fire_probability": 1.0, "risk_label": "ACTIVE_FIRE", "p_unet": 0.006, "p_low": 0.006, "p_high": 0.006}, "geometry": {"type": "Polygon", "coordinates": [[[-122.135584, 37.029392], [-122.124757, 37.029262], [-122.1246, 37.038276], [-122.135428, 37.038406], [-122.135584, 37.029392]]]}}, {"type": "Feature", "properties": {"grid_id": 921557, "fire_probability": 1.0, "risk_label": "ACTIVE_FIRE", "p_unet": 0.006, "p_low": 0.006, "p_high": 0.006}, "geometry": {"type": "Polygon", "coordinates": [[[-122.124757, 37.029262], [-122.11393, 37.029131], [-122.113771, 37.038145], [-122.1246, 37.038276], [-122.124757, 37.029262]]]}}, {"type": "Feature", "properties": {"grid_id": 921565, "fire_probability": 1.0, "risk_label": "ACTIVE_FIRE", "p_unet": 0.006, "p_low": 0.006, "p_high": 0.006}, "geometry": {"type": "Polygon", "coordinates": [[[-122.038141, 37.028183], [-122.027314, 37.028043], [-122.027146, 37.037057], [-122.037974, 37.037197], [-122.038141, 37.028183]]]}}, {"type": "Feature", "properties": {"grid_id": 921566, "fire_probability": 1.0, "risk_label": "ACTIVE_FIRE", "p_unet": 0.006, "p_low": 0.006, "p_high": 0.006}, "geometry": {"type": "Polygon", "coordinates": [[[-122.027314, 37.028043], [-122.016487, 37.027903], [-122.016318, 37.036917], [-122.027146, 37.037057], [-122.027314, 37.028043]]]}}, {"type": "Feature", "properties": {"grid_id": 921567, "fire_probability": 1.0, "risk_label": "ACTIVE_FIRE", "p_unet": 0.003, "p_low": 0.003, "p_high": 0.006}, "geometry": {"type": "Polygon", "coordinates": [[[-122.016487, 37.027903], [-122.00566, 37.027761], [-122.00549, 37.036775], [-122.016318, 37.036917], [-122.016487, 37.027903]]]}}, {"type": "Feature", "properties": {"grid_id": 934576, "fire_probability": 1.0, "risk_label": "ACTIVE_FIRE", "p_unet": 0.006, "p_low": 0.006, "p_high": 0.033}, "geometry": {"type": "Polygon", "coordinates": [[[-121.921391, 36.909405], [-121.910581, 36.909254], [-121.9104, 36.918269], [-121.921211, 36.91842], [-121.921391, 36.909405]]]}}, {"type": "Feature", "properties": {"grid_id": 947593, "fire_probability": 1.0, "risk_label": "ACTIVE_FIRE", "p_unet": 0.006, "p_low": 0.003, "p_high": 0.006}, "geometry": {"type": "Polygon", "coordinates": [[[-121.740229, 36.789505], [-121.729436, 36.789337], [-121.729234, 36.798353], [-121.740029, 36.798521], [-121.740229, 36.789505]]]}}]}