{
  "type": "FeatureCollection",
  "metadata": {
    "timestamp": "2025-01-10T21:00:00Z",
    "source": "U-Net",
    "model_version": "v1.0",
    "mock": true
  },
  "features": [
    {
      "type": "Feature",
      "geometry": {
        "type": "Polygon",
        "coordinates": [
          [
            [
              -122.16000000000001,
              37.04
            ],
            [
              -122.15,
              37.04
            ],
            [
              -122.15,
              37.05
            ],
            [
              -122.16000000000001,
              37.05
            ],
            [
              -122.16000000000001,
              37.04
            ]
          ]
        ]
      },
      "properties": {
        "grid_id": 2003,
        "fire_probability": 0.8,
        "horizon_hours": 1
      }
    },
    {
      "type": "Feature",
      "geometry": {
        "type": "Polygon",
        "coordinates": [
          [
            [
              -122.16000000000001,
              37.05
            ],
            [
              -122.15,
              37.05
            ],
            [
              -122.15,
              37.059999999999995
            ],
            [
              -122.16000000000001,
              37.059999999999995
            ],
            [
              -122.16000000000001,
              37.05
            ]
          ]
        ]
      },
      "properties": {
        "grid_id": 2004,
        "fire_probability": 0.8,
        "horizon_hours": 1
      }
    },
    {
      "type": "Feature",
      "geometry": {
        "type": "Polygon",
        "coordinates": [
          [
            [
              -122.16000000000001,
              37.059999999999995
            ],
            [
              -122.15,
              37.059999999999995
            ],
            [
              -122.15,
              37.06999999999999
            ],
            [
              -122.16000000000001,
              37.06999999999999
            ],
            [
              -122.16000000000001,
              37.059999999999995
            ]
          ]
        ]
      },
      "properties": {
        "grid_id": 2005,
        "fire_probability": 0.8,
        "horizon_hours": 1
      }
    },
    {
      "type": "Feature",
      "geometry": {
        "type": "Polygon",
        "coordinates": [
          [
            [
              -122.15,
              37.04
            ],
            [
              -122.14,
              37.04
            ],
            [
              -122.14,
              37.05
            ],
            [
              -122.15,
              37.05
            ],
            [
              -122.15,
              37.04
            ]
          ]
        ]
      },
      "properties": {
        "grid_id": 2006,
        "fire_probability": 0.8,
        "horizon_hours": 1
      }
    },
    {
      "type": "Feature",
      "geometry": {
        "type": "Polygon",
        "coordinates": [
          [
            [
              -122.15,
              37.05
            ],
            [
              -122.14,
              37.05
            ],
            [
              -122.14,
              37.059999999999995
            ],
            [
              -122.15,
              37.059999999999995
            ],
            [
              -122.15,
              37.05
            ]
          ]
        ]
      },
      "properties": {
        "grid_id": 2007,
        "fire_probability": 0.95,
        "horizon_hours": 1
      }
    },
    {
      "type": "Feature",
      "geometry": {
        "type": "Polygon",
        "coordinates": [
          [
            [
              -122.15,
              37.059999999999995
            ],
            [
              -122.14,
              37.059999999999995
            ],
            [
              -122.14,
              37.06999999999999
            ],
            [
              -122.15,
              37.06999999999999
            ],
            [
              -122.15,
              37.059999999999995
            ]
          ]
        ]
      },
      "properties": {
        "grid_id": 2008,
        "fire_probability": 0.8,
        "horizon_hours": 1
      }
    },
    {
      "type": "Feature",
      "geometry": {
        "type": "Polygon",
        "coordinates": [
          [
            [
              -122.14,
              37.04
            ],
            [
              -122.13,
              37.04
            ],
            [
              -122.13,
              37.05
            ],
            [
              -122.14,
              37.05
            ],
            [
              -122.14,
              37.04
            ]
          ]
        ]
      },
      "properties": {
        "grid_id": 2009,
        "fire_probability": 0.8,
        "horizon_hours": 1
      }
    },
    {
      "type": "Feature",
      "geometry": {
        "type": "Polygon",
        "coordinates": [
          [
            [
              -122.14,
              37.05
            ],
            [
              -122.13,
              37.05
            ],
            [
              -122.13,
              37.059999999999995
            ],
            [
              -122.14,
              37.059999999999995
            ],
            [
              -122.14,
              37.05
            ]
          ]
        ]
      },
      "properties": {
        "grid_id": 2010,
        "fire_probability": 0.95,
        "horizon_hours": 1
      }
    },
    {
      "type": "Feature",
      "geometry": {
        "type": "Polygon",
        "coordinates": [
          [
            [
              -122.14,
              37.059999999999995
            ],
            [
              -122.13,
              37.059999999999995
            ],
            [
              -122.13,
              37.06999999999999
            ],
            [
              -122.14,
              37.06999999999999
            ],
            [
              -122.14,
              37.059999999999995
            ]
          ]
        ]
      },
      "properties": {
        "grid_id": 2011,
        "fire_probability": 0.8,
        "horizon_hours": 1
      }
    },
    {
      "type": "Feature",
      "geometry": {
        "type": "Polygon",
        "coordinates": [
          [
            [
              -122.13000000000001,
              37.04
            ],
            [
              -122.12,
              37.04
            ],
            [
              -122.12,
              37.05
            ],
            [
              -122.13000000000001,
              37.05
            ],
            [
              -122.13000000000001,
              37.04
            ]
          ]
        ]
      },
      "properties": {
        "grid_id": 2012,
        "fire_probability": 0.8,
        "horizon_hours": 1
      }
    },
    {
      "type": "Feature",
      "geometry": {
        "type": "Polygon",
        "coordinates": [
          [
            [
              -122.13000000000001,
              37.05
            ],
            [
              -122.12,
              37.05
            ],
            [
              -122.12,
              37.059999999999995
            ],
            [
              -122.13000000000001,
              37.059999999999995
            ],
            [
              -122.13000000000001,
              37.05
            ]
          ]
        ]
      },
      "properties": {
        "grid_id": 2013,
        "fire_probability": 0.8,
        "horizon_hours": 1
      }
    },
    {
      "type": "Feature",
      "geometry": {
        "type": "Polygon",
        "coordinates": [
          [
            [
              -122.13000000000001,
              37.059999999999995
            ],
            [
              -122.12,
              37.059999999999995
            ],
            [
              -122.12,
              37.06999999999999
            ],
            [
              -122.13000000000001,
              37.06999999999999
            ],
            [
              -122.13000000000001,
              37.059999999999995
            ]
          ]
        ]
      },
      "properties": {
        "grid_id": 2014,
        "fire_probability": 0.8,
        "horizon_hours": 1
      }
    }
  ]
}