{
  "type": "FeatureCollection",
  "metadata": {
    "timestamp": "2025-01-10T21:00:00Z",
    "source": "U-Net",
    "model_version": "v1.0",
    "mock": true
  },
  "features": [
    {
      "type": "Feature",
      "geometry": {
        "type": "Polygon",
        "coordinates": [
          [
            [
              -122.18,
              37.019999999999996
            ],
            [
              -122.17,
              37.019999999999996
            ],
            [
              -122.17,
              37.029999999999994
            ],
            [
              -122.18,
              37.029999999999994
            ],
            [
              -122.18,
              37.019999999999996
            ]
          ]
        ]
      },
      "properties": {
        "grid_id": 2045,
        "fire_probability": 0.2,
        "horizon_hours": 6
      }
    },
    {
      "type": "Feature",
      "geometry": {
        "type": "Polygon",
        "coordinates": [
          [
            [
              -122.18,
              37.029999999999994
            ],
            [
              -122.17,
              37.029999999999994
            ],
            [
              -122.17,
              37.03999999999999
            ],
            [
              -122.18,
              37.03999999999999
            ],
            [
              -122.18,
              37.029999999999994
            ]
          ]
        ]
      },
      "properties": {
        "grid_id": 2046,
        "fire_probability": 0.2,
        "horizon_hours": 6
      }
    },
    {
      "type": "Feature",
      "geometry": {
        "type": "Polygon",
        "coordinates": [
          [
            [
              -122.18,
              37.04
            ],
            [
              -122.17,
              37.04
            ],
            [
              -122.17,
              37.05
            ],
            [
              -122.18,
              37.05
            ],
            [
              -122.18,
              37.04
            ]
          ]
        ]
      },
      "properties": {
        "grid_id": 2047,
        "fire_probability": 0.2,
        "horizon_hours": 6
      }
    },
    {
      "type": "Feature",
      "geometry": {
        "type": "Polygon",
        "coordinates": [
          [
            [
              -122.18,
              37.05
            ],
            [
              -122.17,
              37.05
            ],
            [
              -122.17,
              37.059999999999995
            ],
            [
              -122.18,
              37.059999999999995
            ],
            [
              -122.18,
              37.05
            ]
          ]
        ]
      },
      "properties": {
        "grid_id": 2048,
        "fire_probability": 0.2,
        "horizon_hours": 6
      }
    },
    {
      "type": "Feature",
      "geometry": {
        "type": "Polygon",
        "coordinates": [
          [
            [
              -122.18,
              37.059999999999995
            ],
            [
              -122.17,
              37.059999999999995
            ],
            [
              -122.17,
              37.06999999999999
            ],
            [
              -122.18,
              37.06999999999999
            ],
            [
              -122.18,
              37.059999999999995
            ]
          ]
        ]
      },
      "properties": {
        "grid_id": 2049,
        "fire_probability": 0.2,
        "horizon_hours": 6
      }
    },
    {
      "type": "Feature",
      "geometry": {
        "type": "Polygon",
        "coordinates": [
          [
            [
              -122.18,
              37.07
            ],
            [
              -122.17,
              37.07
            ],
            [
              -122.17,
              37.08
            ],
            [
              -122.18,
              37.08
            ],
            [
              -122.18,
              37.07
            ]
          ]
        ]
      },
      "properties": {
        "grid_id": 2050,
        "fire_probability": 0.2,
        "horizon_hours": 6
      }
    },
    {
      "type": "Feature",
      "geometry": {
        "type": "Polygon",
        "coordinates": [
          [
            [
              -122.18,
              37.08
            ],
            [
              -122.17,
              37.08
            ],
            [
              -122.17,
              37.089999999999996
            ],
            [
              -122.18,
              37.089999999999996
            ],
            [
              -122.18,
              37.08
            ]
          ]
        ]
      },
      "properties": {
        "grid_id": 2051,
        "fire_probability": 0.2,
        "horizon_hours": 6
      }
    },
    {
      "type": "Feature",
      "geometry": {
        "type": "Polygon",
        "coordinates": [
          [
            [
              -122.17,
              37.019999999999996
            ],
            [
              -122.16,
              37.019999999999996
            ],
            [
              -122.16,
              37.029999999999994
            ],
            [
              -122.17,
              37.029999999999994
            ],
            [
              -122.17,
              37.019999999999996
            ]
          ]
        ]
      },
      "properties": {
        "grid_id": 2052,
        "fire_probability": 0.2,
        "horizon_hours": 6
      }
    },
    {
      "type": "Feature",
      "geometry": {
        "type": "Polygon",
        "coordinates": [
          [
            [
              -122.17,
              37.029999999999994
            ],
            [
              -122.16,
              37.029999999999994
            ],
            [
              -122.16,
              37.03999999999999
            ],
            [
              -122.17,
              37.03999999999999
            ],
            [
              -122.17,
              37.029999999999994
            ]
          ]
        ]
      },
      "properties": {
        "grid_id": 2053,
        "fire_probability": 0.5,
        "horizon_hours": 6
      }
    },
    {
      "type": "Feature",
      "geometry": {
        "type": "Polygon",
        "coordinates": [
          [
            [
              -122.17,
              37.04
            ],
            [
              -122.16,
              37.04
            ],
            [
              -122.16,
              37.05
            ],
            [
              -122.17,
              37.05
            ],
            [
              -122.17,
              37.04
            ]
          ]
        ]
      },
      "properties": {
        "grid_id": 2054,
        "fire_probability": 0.5,
        "horizon_hours": 6
      }
    },
    {
      "type": "Feature",
      "geometry": {
        "type": "Polygon",
        "coordinates": [
          [
            [
              -122.17,
              37.05
            ],
            [
              -122.16,
              37.05
            ],
            [
              -122.16,
              37.059999999999995
            ],
            [
              -122.17,
              37.059999999999995
            ],
            [
              -122.17,
              37.05
            ]
          ]
        ]
      },
      "properties": {
        "grid_id": 2055,
        "fire_probability": 0.5,
        "horizon_hours": 6
      }
    },
    {
      "type": "Feature",
      "geometry": {
        "type": "Polygon",
        "coordinates": [
          [
            [
              -122.17,
              37.059999999999995
            ],
            [
              -122.16,
              37.059999999999995
            ],
            [
              -122.16,
              37.06999999999999
            ],
            [
              -122.17,
              37.06999999999999
            ],
            [
              -122.17,
              37.059999999999995
            ]
          ]
        ]
      },
      "properties": {
        "grid_id": 2056,
        "fire_probability": 0.5,
        "horizon_hours": 6
      }
    },
    {
      "type": "Feature",
      "geometry": {
        "type": "Polygon",
        "coordinates": [
          [
            [
              -122.17,
              37.07
            ],
            [
              -122.16,
              37.07
            ],
            [
              -122.16,
              37.08
            ],
            [
              -122.17,
              37.08
            ],
            [
              -122.17,
              37.07
            ]
          ]
        ]
      },
      "properties": {
        "grid_id": 2057,
        "fire_probability": 0.5,
        "horizon_hours": 6
      }
    },
    {
      "type": "Feature",
      "geometry": {
        "type": "Polygon",
        "coordinates": [
          [
            [
              -122.17,
              37.08
            ],
            [
              -122.16,
              37.08
            ],
            [
              -122.16,
              37.089999999999996
            ],
            [
              -122.17,
              37.089999999999996
            ],
            [
              -122.17,
              37.08
            ]
          ]
        ]
      },
      "properties": {
        "grid_id": 2058,
        "fire_probability": 0.2,
        "horizon_hours": 6
      }
    },
    {
      "type": "Feature",
      "geometry": {
        "type": "Polygon",
        "coordinates": [
          [
            [
              -122.16000000000001,
              37.019999999999996
            ],
            [
              -122.15,
              37.019999999999996
            ],
            [
              -122.15,
              37.029999999999994
            ],
            [
              -122.16000000000001,
              37.029999999999994
            ],
            [
              -122.16000000000001,
              37.019999999999996
            ]
          ]
        ]
      },
      "properties": {
        "grid_id": 2059,
        "fire_probability": 0.2,
        "horizon_hours": 6
      }
    },
    {
      "type": "Feature",
      "geometry": {
        "type": "Polygon",
        "coordinates": [
          [
            [
              -122.16000000000001,
              37.029999999999994
            ],
            [
              -122.15,
              37.029999999999994
            ],
            [
              -122.15,
              37.03999999999999
            ],
            [
              -122.16000000000001,
              37.03999999999999
            ],
            [
              -122.16000000000001,
              37.029999999999994
            ]
          ]
        ]
      },
      "properties": {
        "grid_id": 2060,
        "fire_probability": 0.5,
        "horizon_hours": 6
      }
    },
    {
      "type": "Feature",
      "geometry": {
        "type": "Polygon",
        "coordinates": [
          [
            [
              -122.16000000000001,
              37.04
            ],
            [
              -122.15,
              37.04
            ],
            [
              -122.15,
              37.05
            ],
            [
              -122.16000000000001,
              37.05
            ],
            [
              -122.16000000000001,
              37.04
            ]
          ]
        ]
      },
      "properties": {
        "grid_id": 2061,
        "fire_probability": 0.8,
        "horizon_hours": 6
      }
    },
    {
      "type": "Feature",
      "geometry": {
        "type": "Polygon",
        "coordinates": [
          [
            [
              -122.16000000000001,
              37.05
            ],
            [
              -122.15,
              37.05
            ],
            [
              -122.15,
              37.059999999999995
            ],
            [
              -122.16000000000001,
              37.059999999999995
            ],
            [
              -122.16000000000001,
              37.05
            ]
          ]
        ]
      },
      "properties": {
        "grid_id": 2062,
        "fire_probability": 0.8,
        "horizon_hours": 6
      }
    },
    {
      "type": "Feature",
      "geometry": {
        "type": "Polygon",
        "coordinates": [
          [
            [
              -122.16000000000001,
              37.059999999999995
            ],
            [
              -122.15,
              37.059999999999995
            ],
            [
              -122.15,
              37.06999999999999
            ],
            [
              -122.16000000000001,
              37.06999999999999
            ],
            [
              -122.16000000000001,
              37.059999999999995
            ]
          ]
        ]
      },
      "properties": {
        "grid_id": 2063,
        "fire_probability": 0.8,
        "horizon_hours": 6
      }
    },
    {
      "type": "Feature",
      "geometry": {
        "type": "Polygon",
        "coordinates": [
          [
            [
              -122.16000000000001,
              37.07
            ],
            [
              -122.15,
              37.07
            ],
            [
              -122.15,
              37.08
            ],
            [
              -122.16000000000001,
              37.08
            ],
            [
              -122.16000000000001,
              37.07
            ]
          ]
        ]
      },
      "properties": {
        "grid_id": 2064,
        "fire_probability": 0.5,
        "horizon_hours": 6
      }
    },
    {
      "type": "Feature",
      "geometry": {
        "type": "Polygon",
        "coordinates": [
          [
            [
              -122.16000000000001,
              37.08
            ],
            [
              -122.15,
              37.08
            ],
            [
              -122.15,
              37.089999999999996
            ],
            [
              -122.16000000000001,
              37.089999999999996
            ],
            [
              -122.16000000000001,
              37.08
            ]
          ]
        ]
      },
      "properties": {
        "grid_id": 2065,
        "fire_probability": 0.2,
        "horizon_hours": 6
      }
    },
    {
      "type": "Feature",
      "geometry": {
        "type": "Polygon",
        "coordinates": [
          [
            [
              -122.15,
              37.019999999999996
            ],
            [
              -122.14,
              37.019999999999996
            ],
            [
              -122.14,
              37.029999999999994
            ],
            [
              -122.15,
              37.029999999999994
            ],
            [
              -122.15,
              37.019999999999996
            ]
          ]
        ]
      },
      "properties": {
        "grid_id": 2066,
        "fire_probability": 0.2,
        "horizon_hours": 6
      }
    },
    {
      "type": "Feature",
      "geometry": {
        "type": "Polygon",
        "coordinates": [
          [
            [
              -122.15,
              37.029999999999994
            ],
            [
              -122.14,
              37.029999999999994
            ],
            [
              -122.14,
              37.03999999999999
            ],
            [
              -122.15,
              37.03999999999999
            ],
            [
              -122.15,
              37.029999999999994
            ]
          ]
        ]
      },
      "properties": {
        "grid_id": 2067,
        "fire_probability": 0.5,
        "horizon_hours": 6
      }
    },
    {
      "type": "Feature",
      "geometry": {
        "type": "Polygon",
        "coordinates": [
          [
            [
              -122.15,
              37.04
            ],
            [
              -122.14,
              37.04
            ],
            [
              -122.14,
              37.05
            ],
            [
              -122.15,
              37.05
            ],
            [
              -122.15,
              37.04
            ]
          ]
        ]
      },
      "properties": {
        "grid_id": 2068,
        "fire_probability": 0.8,
        "horizon_hours": 6
      }
    },
    {
      "type": "Feature",
      "geometry": {
        "type": "Polygon",
        "coordinates": [
          [
            [
              -122.15,
              37.05
            ],
            [
              -122.14,
              37.05
            ],
            [
              -122.14,
              37.059999999999995
            ],
            [
              -122.15,
              37.059999999999995
            ],
            [
              -122.15,
              37.05
            ]
          ]
        ]
      },
      "properties": {
        "grid_id": 2069,
        "fire_probability": 0.95,
        "horizon_hours": 6
      }
    },
    {
      "type": "Feature",
      "geometry": {
        "type": "Polygon",
        "coordinates": [
          [
            [
              -122.15,
              37.059999999999995
            ],
            [
              -122.14,
              37.059999999999995
            ],
            [
              -122.14,
              37.06999999999999
            ],
            [
              -122.15,
              37.06999999999999
            ],
            [
              -122.15,
              37.059999999999995
            ]
          ]
        ]
      },
      "properties": {
        "grid_id": 2070,
        "fire_probability": 0.8,
        "horizon_hours": 6
      }
    },
    {
      "type": "Feature",
      "geometry": {
        "type": "Polygon",
        "coordinates": [
          [
            [
              -122.15,
              37.07
            ],
            [
              -122.14,
              37.07
            ],
            [
              -122.14,
              37.08
            ],
            [
              -122.15,
              37.08
            ],
            [
              -122.15,
              37.07
            ]
          ]
        ]
      },
      "properties": {
        "grid_id": 2071,
        "fire_probability": 0.5,
        "horizon_hours": 6
      }
    },
    {
      "type": "Feature",
      "geometry": {
        "type": "Polygon",
        "coordinates": [
          [
            [
              -122.15,
              37.08
            ],
            [
              -122.14,
              37.08
            ],
            [
              -122.14,
              37.089999999999996
            ],
            [
              -122.15,
              37.089999999999996
            ],
            [
              -122.15,
              37.08
            ]
          ]
        ]
      },
      "properties": {
        "grid_id": 2072,
        "fire_probability": 0.2,
        "horizon_hours": 6
      }
    },
    {
      "type": "Feature",
      "geometry": {
        "type": "Polygon",
        "coordinates": [
          [
            [
              -122.14,
              37.019999999999996
            ],
            [
              -122.13,
              37.019999999999996
            ],
            [
              -122.13,
              37.029999999999994
            ],
            [
              -122.14,
              37.029999999999994
            ],
            [
              -122.14,
              37.019999999999996
            ]
          ]
        ]
      },
      "properties": {
        "grid_id": 2073,
        "fire_probability": 0.2,
        "horizon_hours": 6
      }
    },
    {
      "type": "Feature",
      "geometry": {
        "type": "Polygon",
        "coordinates": [
          [
            [
              -122.14,
              37.029999999999994
            ],
            [
              -122.13,
              37.029999999999994
            ],
            [
              -122.13,
              37.03999999999999
            ],
            [
              -122.14,
              37.03999999999999
            ],
            [
              -122.14,
              37.029999999999994
            ]
          ]
        ]
      },
      "properties": {
        "grid_id": 2074,
        "fire_probability": 0.5,
        "horizon_hours": 6
      }
    },
    {
      "type": "Feature",
      "geometry": {
        "type": "Polygon",
        "coordinates": [
          [
            [
              -122.14,
              37.04
            ],
            [
              -122.13,
              37.04
            ],
            [
              -122.13,
              37.05
            ],
            [
              -122.14,
              37.05
            ],
            [
              -122.14,
              37.04
            ]
          ]
        ]
      },
      "properties": {
        "grid_id": 2075,
        "fire_probability": 0.8,
        "horizon_hours": 6
      }
    },
    {
      "type": "Feature",
      "geometry": {
        "type": "Polygon",
        "coordinates": [
          [
            [
              -122.14,
              37.05
            ],
            [
              -122.13,
              37.05
            ],
            [
              -122.13,
              37.059999999999995
            ],
            [
              -122.14,
              37.059999999999995
            ],
            [
              -122.14,
              37.05
            ]
          ]
        ]
      },
      "properties": {
        "grid_id": 2076,
        "fire_probability": 0.95,
        "horizon_hours": 6
      }
    },
    {
      "type": "Feature",
      "geometry": {
        "type": "Polygon",
        "coordinates": [
          [
            [
              -122.14,
              37.059999999999995
            ],
            [
              -122.13,
              37.059999999999995
            ],
            [
              -122.13,
              37.06999999999999
            ],
            [
              -122.14,
              37.06999999999999
            ],
            [
              -122.14,
              37.059999999999995
            ]
          ]
        ]
      },
      "properties": {
        "grid_id": 2077,
        "fire_probability": 0.8,
        "horizon_hours": 6
      }
    },
    {
      "type": "Feature",
      "geometry": {
        "type": "Polygon",
        "coordinates": [
          [
            [
              -122.14,
              37.07
            ],
            [
              -122.13,
              37.07
            ],
            [
              -122.13,
              37.08
            ],
            [
              -122.14,
              37.08
            ],
            [
              -122.14,
              37.07
            ]
          ]
        ]
      },
      "properties": {
        "grid_id": 2078,
        "fire_probability": 0.5,
        "horizon_hours": 6
      }
    },
    {
      "type": "Feature",
      "geometry": {
        "type": "Polygon",
        "coordinates": [
          [
            [
              -122.14,
              37.08
            ],
            [
              -122.13,
              37.08
            ],
            [
              -122.13,
              37.089999999999996
            ],
            [
              -122.14,
              37.089999999999996
            ],
            [
              -122.14,
              37.08
            ]
          ]
        ]
      },
      "properties": {
        "grid_id": 2079,
        "fire_probability": 0.2,
        "horizon_hours": 6
      }
    },
    {
      "type": "Feature",
      "geometry": {
        "type": "Polygon",
        "coordinates": [
          [
            [
              -122.13000000000001,
              37.019999999999996
            ],
            [
              -122.12,
              37.019999999999996
            ],
            [
              -122.12,
              37.029999999999994
            ],
            [
              -122.13000000000001,
              37.029999999999994
            ],
            [
              -122.13000000000001,
              37.019999999999996
            ]
          ]
        ]
      },
      "properties": {
        "grid_id": 2080,
        "fire_probability": 0.2,
        "horizon_hours": 6
      }
    },
    {
      "type": "Feature",
      "geometry": {
        "type": "Polygon",
        "coordinates": [
          [
            [
              -122.13000000000001,
              37.029999999999994
            ],
            [
              -122.12,
              37.029999999999994
            ],
            [
              -122.12,
              37.03999999999999
            ],
            [
              -122.13000000000001,
              37.03999999999999
            ],
            [
              -122.13000000000001,
              37.029999999999994
            ]
          ]
        ]
      },
      "properties": {
        "grid_id": 2081,
        "fire_probability": 0.5,
        "horizon_hours": 6
      }
    },
    {
      "type": "Feature",
      "geometry": {
        "type": "Polygon",
        "coordinates": [
          [
            [
              -122.13000000000001,
              37.04
            ],
            [
              -122.12,
              37.04
            ],
            [
              -122.12,
              37.05
            ],
            [
              -122.13000000000001,
              37.05
            ],
            [
              -122.13000000000001,
              37.04
            ]
          ]
        ]
      },
      "properties": {
        "grid_id": 2082,
        "fire_probability": 0.8,
        "horizon_hours": 6
      }
    },
    {
      "type": "Feature",
      "geometry": {
        "type": "Polygon",
        "coordinates": [
          [
            [
              -122.13000000000001,
              37.05
            ],
            [
              -122.12,
              37.05
            ],
            [
              -122.12,
              37.059999999999995
            ],
            [
              -122.13000000000001,
              37.059999999999995
            ],
            [
              -122.13000000000001,
              37.05
            ]
          ]
        ]
      },
      "properties": {
        "grid_id": 2083,
        "fire_probability": 0.8,
        "horizon_hours": 6
      }
    },
    {
      "type": "Feature",
      "geometry": {
        "type": "Polygon",
        "coordinates": [
          [
            [
              -122.13000000000001,
              37.059999999999995
            ],
            [
              -122.12,
              37.059999999999995
            ],
            [
              -122.12,
              37.06999999999999
            ],
            [
              -122.13000000000001,
              37.06999999999999
            ],
            [
              -122.13000000000001,
              37.059999999999995
            ]
          ]
        ]
      },
      "properties": {
        "grid_id": 2084,
        "fire_probability": 0.8,
        "horizon_hours": 6
      }
    },
    {
      "type": "Feature",
      "geometry": {
        "type": "Polygon",
        "coordinates": [
          [
            [
              -122.13000000000001,
              37.07
            ],
            [
              -122.12,
              37.07
            ],
            [
              -122.12,
              37.08
            ],
            [
              -122.13000000000001,
              37.08
            ],
            [
              -122.13000000000001,
              37.07
            ]
          ]
        ]
      },
      "properties": {
        "grid_id": 2085,
        "fire_probability": 0.5,
        "horizon_hours": 6
      }
    },
    {
      "type": "Feature",
      "geometry": {
        "type": "Polygon",
        "coordinates": [
          [
            [
              -122.13000000000001,
              37.08
            ],
            [
              -122.12,
              37.08
            ],
            [
              -122.12,
              37.089999999999996
            ],
            [
              -122.13000000000001,
              37.089999999999996
            ],
            [
              -122.13000000000001,
              37.08
            ]
          ]
        ]
      },
      "properties": {
        "grid_id": 2086,
        "fire_probability": 0.2,
        "horizon_hours": 6
      }
    },
    {
      "type": "Feature",
      "geometry": {
        "type": "Polygon",
        "coordinates": [
          [
            [
              -122.12,
              37.019999999999996
            ],
            [
              -122.11,
              37.019999999999996
            ],
            [
              -122.11,
              37.029999999999994
            ],
            [
              -122.12,
              37.029999999999994
            ],
            [
              -122.12,
              37.019999999999996
            ]
          ]
        ]
      },
      "properties": {
        "grid_id": 2087,
        "fire_probability": 0.2,
        "horizon_hours": 6
      }
    },
    {
      "type": "Feature",
      "geometry": {
        "type": "Polygon",
        "coordinates": [
          [
            [
              -122.12,
              37.029999999999994
            ],
            [
              -122.11,
              37.029999999999994
            ],
            [
              -122.11,
              37.03999999999999
            ],
            [
              -122.12,
              37.03999999999999
            ],
            [
              -122.12,
              37.029999999999994
            ]
          ]
        ]
      },
      "properties": {
        "grid_id": 2088,
        "fire_probability": 0.5,
        "horizon_hours": 6
      }
    },
    {
      "type": "Feature",
      "geometry": {
        "type": "Polygon",
        "coordinates": [
          [
            [
              -122.12,
              37.04
            ],
            [
              -122.11,
              37.04
            ],
            [
              -122.11,
              37.05
            ],
            [
              -122.12,
              37.05
            ],
            [
              -122.12,
              37.04
            ]
          ]
        ]
      },
      "properties": {
        "grid_id": 2089,
        "fire_probability": 0.5,
        "horizon_hours": 6
      }
    },
    {
      "type": "Feature",
      "geometry": {
        "type": "Polygon",
        "coordinates": [
          [
            [
              -122.12,
              37.05
            ],
            [
              -122.11,
              37.05
            ],
            [
              -122.11,
              37.059999999999995
            ],
            [
              -122.12,
              37.059999999999995
            ],
            [
              -122.12,
              37.05
            ]
          ]
        ]
      },
      "properties": {
        "grid_id": 2090,
        "fire_probability": 0.5,
        "horizon_hours": 6
      }
    },
    {
      "type": "Feature",
      "geometry": {
        "type": "Polygon",
        "coordinates": [
          [
            [
              -122.12,
              37.059999999999995
            ],
            [
              -122.11,
              37.059999999999995
            ],
            [
              -122.11,
              37.06999999999999
            ],
            [
              -122.12,
              37.06999999999999
            ],
            [
              -122.12,
              37.059999999999995
            ]
          ]
        ]
      },
      "properties": {
        "grid_id": 2091,
        "fire_probability": 0.5,
        "horizon_hours": 6
      }
    },
    {
      "type": "Feature",
      "geometry": {
        "type": "Polygon",
        "coordinates": [
          [
            [
              -122.12,
              37.07
            ],
            [
              -122.11,
              37.07
            ],
            [
              -122.11,
              37.08
            ],
            [
              -122.12,
              37.08
            ],
            [
              -122.12,
              37.07
            ]
          ]
        ]
      },
      "properties": {
        "grid_id": 2092,
        "fire_probability": 0.5,
        "horizon_hours": 6
      }
    },
    {
      "type": "Feature",
      "geometry": {
        "type": "Polygon",
        "coordinates": [
          [
            [
              -122.12,
              37.08
            ],
            [
              -122.11,
              37.08
            ],
            [
              -122.11,
              37.089999999999996
            ],
            [
              -122.12,
              37.089999999999996
            ],
            [
              -122.12,
              37.08
            ]
          ]
        ]
      },
      "properties": {
        "grid_id": 2093,
        "fire_probability": 0.2,
        "horizon_hours": 6
      }
    },
    {
      "type": "Feature",
      "geometry": {
        "type": "Polygon",
        "coordinates": [
          [
            [
              -122.11,
              37.019999999999996
            ],
            [
              -122.1,
              37.019999999999996
            ],
            [
              -122.1,
              37.029999999999994
            ],
            [
              -122.11,
              37.029999999999994
            ],
            [
              -122.11,
              37.019999999999996
            ]
          ]
        ]
      },
      "properties": {
        "grid_id": 2094,
        "fire_probability": 0.2,
        "horizon_hours": 6
      }
    },
    {
      "type": "Feature",
      "geometry": {
        "type": "Polygon",
        "coordinates": [
          [
            [
              -122.11,
              37.029999999999994
            ],
            [
              -122.1,
              37.029999999999994
            ],
            [
              -122.1,
              37.03999999999999
            ],
            [
              -122.11,
              37.03999999999999
            ],
            [
              -122.11,
              37.029999999999994
            ]
          ]
        ]
      },
      "properties": {
        "grid_id": 2095,
        "fire_probability": 0.2,
        "horizon_hours": 6
      }
    },
    {
      "type": "Feature",
      "geometry": {
        "type": "Polygon",
        "coordinates": [
          [
            [
              -122.11,
              37.04
            ],
            [
              -122.1,
              37.04
            ],
            [
              -122.1,
              37.05
            ],
            [
              -122.11,
              37.05
            ],
            [
              -122.11,
              37.04
            ]
          ]
        ]
      },
      "properties": {
        "grid_id": 2096,
        "fire_probability": 0.2,
        "horizon_hours": 6
      }
    },
    {
      "type": "Feature",
      "geometry": {
        "type": "Polygon",
        "coordinates": [
          [
            [
              -122.11,
              37.05
            ],
            [
              -122.1,
              37.05
            ],
            [
              -122.1,
              37.059999999999995
            ],
            [
              -122.11,
              37.059999999999995
            ],
            [
              -122.11,
              37.05
            ]
          ]
        ]
      },
      "properties": {
        "grid_id": 2097,
        "fire_probability": 0.2,
        "horizon_hours": 6
      }
    },
    {
      "type": "Feature",
      "geometry": {
        "type": "Polygon",
        "coordinates": [
          [
            [
              -122.11,
              37.059999999999995
            ],
            [
              -122.1,
              37.059999999999995
            ],
            [
              -122.1,
              37.06999999999999
            ],
            [
              -122.11,
              37.06999999999999
            ],
            [
              -122.11,
              37.059999999999995
            ]
          ]
        ]
      },
      "properties": {
        "grid_id": 2098,
        "fire_probability": 0.2,
        "horizon_hours": 6
      }
    },
    {
      "type": "Feature",
      "geometry": {
        "type": "Polygon",
        "coordinates": [
          [
            [
              -122.11,
              37.07
            ],
            [
              -122.1,
              37.07
            ],
            [
              -122.1,
              37.08
            ],
            [
              -122.11,
              37.08
            ],
            [
              -122.11,
              37.07
            ]
          ]
        ]
      },
      "properties": {
        "grid_id": 2099,
        "fire_probability": 0.2,
        "horizon_hours": 6
      }
    },
    {
      "type": "Feature",
      "geometry": {
        "type": "Polygon",
        "coordinates": [
          [
            [
              -122.11,
              37.08
            ],
            [
              -122.1,
              37.08
            ],
            [
              -122.1,
              37.089999999999996
            ],
            [
              -122.11,
              37.089999999999996
            ],
            [
              -122.11,
              37.08
            ]
          ]
        ]
      },
      "properties": {
        "grid_id": 2100,
        "fire_probability": 0.2,
        "horizon_hours": 6
      }
    }
  ]
}