{
  "type": "FeatureCollection",
  "metadata": {
    "timestamp": "2025-01-10T21:00:00Z",
    "source": "U-Net",
    "model_version": "v1.0",
    "mock": true
  },
  "features": [
    {
      "type": "Feature",
      "geometry": {
        "type": "Polygon",
        "coordinates": [
          [
            [
              -122.17,
              37.029999999999994
            ],
            [
              -122.16,
              37.029999999999994
            ],
            [
              -122.16,
              37.03999999999999
            ],
            [
              -122.17,
              37.03999999999999
            ],
            [
              -122.17,
              37.029999999999994
            ]
          ]
        ]
      },
      "properties": {
        "grid_id": 2015,
        "fire_probability": 0.5,
        "horizon_hours": 3
      }
    },
    {
      "type": "Feature",
      "geometry": {
        "type": "Polygon",
        "coordinates": [
          [
            [
              -122.17,
              37.04
            ],
            [
              -122.16,
              37.04
            ],
            [
              -122.16,
              37.05
            ],
            [
              -122.17,
              37.05
            ],
            [
              -122.17,
              37.04
            ]
          ]
        ]
      },
      "properties": {
        "grid_id": 2016,
        "fire_probability": 0.5,
        "horizon_hours": 3
      }
    },
    {
      "type": "Feature",
      "geometry": {
        "type": "Polygon",
        "coordinates": [
          [
            [
              -122.17,
              37.05
            ],
            [
              -122.16,
              37.05
            ],
            [
              -122.16,
              37.059999999999995
            ],
            [
              -122.17,
              37.059999999999995
            ],
            [
              -122.17,
              37.05
            ]
          ]
        ]
      },
      "properties": {
        "grid_id": 2017,
        "fire_probability": 0.5,
        "horizon_hours": 3
      }
    },
    {
      "type": "Feature",
      "geometry": {
        "type": "Polygon",
        "coordinates": [
          [
            [
              -122.17,
              37.059999999999995
            ],
            [
              -122.16,
              37.059999999999995
            ],
            [
              -122.16,
              37.06999999999999
            ],
            [
              -122.17,
              37.06999999999999
            ],
            [
              -122.17,
              37.059999999999995
            ]
          ]
        ]
      },
      "properties": {
        "grid_id": 2018,
        "fire_probability": 0.5,
        "horizon_hours": 3
      }
    },
    {
      "type": "Feature",
      "geometry": {
        "type": "Polygon",
        "coordinates": [
          [
            [
              -122.17,
              37.07
            ],
            [
              -122.16,
              37.07
            ],
            [
              -122.16,
              37.08
            ],
            [
              -122.17,
              37.08
            ],
            [
              -122.17,
              37.07
            ]
          ]
        ]
      },
      "properties": {
        "grid_id": 2019,
        "fire_probability": 0.5,
        "horizon_hours": 3
      }
    },
    {
      "type": "Feature",
      "geometry": {
        "type": "Polygon",
        "coordinates": [
          [
            [
              -122.16000000000001,
              37.029999999999994
            ],
            [
              -122.15,
              37.029999999999994
            ],
            [
              -122.15,
              37.03999999999999
            ],
            [
              -122.16000000000001,
              37.03999999999999
            ],
            [
              -122.16000000000001,
              37.029999999999994
            ]
          ]
        ]
      },
      "properties": {
        "grid_id": 2020,
        "fire_probability": 0.5,
        "horizon_hours": 3
      }
    },
    {
      "type": "Feature",
      "geometry": {
        "type": "Polygon",
        "coordinates": [
          [
            [
              -122.16000000000001,
              37.04
            ],
            [
              -122.15,
              37.04
            ],
            [
              -122.15,
              37.05
            ],
            [
              -122.16000000000001,
              37.05
            ],
            [
              -122.16000000000001,
              37.04
            ]
          ]
        ]
      },
      "properties": {
        "grid_id": 2021,
        "fire_probability": 0.8,
        "horizon_hours": 3
      }
    },
    {
      "type": "Feature",
      "geometry": {
        "type": "Polygon",
        "coordinates": [
          [
            [
              -122.16000000000001,
              37.05
            ],
            [
              -122.15,
              37.05
            ],
            [
              -122.15,
              37.059999999999995
            ],
            [
              -122.16000000000001,
              37.059999999999995
            ],
            [
              -122.16000000000001,
              37.05
            ]
          ]
        ]
      },
      "properties": {
        "grid_id": 2022,
        "fire_probability": 0.8,
        "horizon_hours": 3
      }
    },
    {
      "type": "Feature",
      "geometry": {
        "type": "Polygon",
        "coordinates": [
          [
            [
              -122.16000000000001,
              37.059999999999995
            ],
            [
              -122.15,
              37.059999999999995
            ],
            [
              -122.15,
              37.06999999999999
            ],
            [
              -122.16000000000001,
              37.06999999999999
            ],
            [
              -122.16000000000001,
              37.059999999999995
            ]
          ]
        ]
      },
      "properties": {
        "grid_id": 2023,
        "fire_probability": 0.8,
        "horizon_hours": 3
      }
    },
    {
      "type": "Feature",
      "geometry": {
        "type": "Polygon",
        "coordinates": [
          [
            [
              -122.16000000000001,
              37.07
            ],
            [
              -122.15,
              37.07
            ],
            [
              -122.15,
              37.08
            ],
            [
              -122.16000000000001,
              37.08
            ],
            [
              -122.16000000000001,
              37.07
            ]
          ]
        ]
      },
      "properties": {
        "grid_id": 2024,
        "fire_probability": 0.5,
        "horizon_hours": 3
      }
    },
    {
      "type": "Feature",
      "geometry": {
        "type": "Polygon",
        "coordinates": [
          [
            [
              -122.15,
              37.029999999999994
            ],
            [
              -122.14,
              37.029999999999994
            ],
            [
              -122.14,
              37.03999999999999
            ],
            [
              -122.15,
              37.03999999999999
            ],
            [
              -122.15,
              37.029999999999994
            ]
          ]
        ]
      },
      "properties": {
        "grid_id": 2025,
        "fire_probability": 0.5,
        "horizon_hours": 3
      }
    },
    {
      "type": "Feature",
      "geometry": {
        "type": "Polygon",
        "coordinates": [
          [
            [
              -122.15,
              37.04
            ],
            [
              -122.14,
              37.04
            ],
            [
              -122.14,
              37.05
            ],
            [
              -122.15,
              37.05
            ],
            [
              -122.15,
              37.04
            ]
          ]
        ]
      },
      "properties": {
        "grid_id": 2026,
        "fire_probability": 0.8,
        "horizon_hours": 3
      }
    },
    {
      "type": "Feature",
      "geometry": {
        "type": "Polygon",
        "coordinates": [
          [
            [
              -122.15,
              37.05
            ],
            [
              -122.14,
              37.05
            ],
            [
              -122.14,
              37.059999999999995
            ],
            [
              -122.15,
              37.059999999999995
            ],
            [
              -122.15,
              37.05
            ]
          ]
        ]
      },
      "properties": {
        "grid_id": 2027,
        "fire_probability": 0.95,
        "horizon_hours": 3
      }
    },
    {
      "type": "Feature",
      "geometry": {
        "type": "Polygon",
        "coordinates": [
          [
            [
              -122.15,
              37.059999999999995
            ],
            [
              -122.14,
              37.059999999999995
            ],
            [
              -122.14,
              37.06999999999999
            ],
            [
              -122.15,
              37.06999999999999
            ],
            [
              -122.15,
              37.059999999999995
            ]
          ]
        ]
      },
      "properties": {
        "grid_id": 2028,
        "fire_probability": 0.8,
        "horizon_hours": 3
      }
    },
    {
      "type": "Feature",
      "geometry": {
        "type": "Polygon",
        "coordinates": [
          [
            [
              -122.15,
              37.07
            ],
            [
              -122.14,
              37.07
            ],
            [
              -122.14,
              37.08
            ],
            [
              -122.15,
              37.08
            ],
            [
              -122.15,
              37.07
            ]
          ]
        ]
      },
      "properties": {
        "grid_id": 2029,
        "fire_probability": 0.5,
        "horizon_hours": 3
      }
    },
    {
      "type": "Feature",
      "geometry": {
        "type": "Polygon",
        "coordinates": [
          [
            [
              -122.14,
              37.029999999999994
            ],
            [
              -122.13,
              37.029999999999994
            ],
            [
              -122.13,
              37.03999999999999
            ],
            [
              -122.14,
              37.03999999999999
            ],
            [
              -122.14,
              37.029999999999994
            ]
          ]
        ]
      },
      "properties": {
        "grid_id": 2030,
        "fire_probability": 0.5,
        "horizon_hours": 3
      }
    },
    {
      "type": "Feature",
      "geometry": {
        "type": "Polygon",
        "coordinates": [
          [
            [
              -122.14,
              37.04
            ],
            [
              -122.13,
              37.04
            ],
            [
              -122.13,
              37.05
            ],
            [
              -122.14,
              37.05
            ],
            [
              -122.14,
              37.04
            ]
          ]
        ]
      },
      "properties": {
        "grid_id": 2031,
        "fire_probability": 0.8,
        "horizon_hours": 3
      }
    },
    {
      "type": "Feature",
      "geometry": {
        "type": "Polygon",
        "coordinates": [
          [
            [
              -122.14,
              37.05
            ],
            [
              -122.13,
              37.05
            ],
            [
              -122.13,
              37.059999999999995
            ],
            [
              -122.14,
              37.059999999999995
            ],
            [
              -122.14,
              37.05
            ]
          ]
        ]
      },
      "properties": {
        "grid_id": 2032,
        "fire_probability": 0.95,
        "horizon_hours": 3
      }
    },
    {
      "type": "Feature",
      "geometry": {
        "type": "Polygon",
        "coordinates": [
          [
            [
              -122.14,
              37.059999999999995
            ],
            [
              -122.13,
              37.059999999999995
            ],
            [
              -122.13,
              37.06999999999999
            ],
            [
              -122.14,
              37.06999999999999
            ],
            [
              -122.14,
              37.059999999999995
            ]
          ]
        ]
      },
      "properties": {
        "grid_id": 2033,
        "fire_probability": 0.8,
        "horizon_hours": 3
      }
    },
    {
      "type": "Feature",
      "geometry": {
        "type": "Polygon",
        "coordinates": [
          [
            [
              -122.14,
              37.07
            ],
            [
              -122.13,
              37.07
            ],
            [
              -122.13,
              37.08
            ],
            [
              -122.14,
              37.08
            ],
            [
              -122.14,
              37.07
            ]
          ]
        ]
      },
      "properties": {
        "grid_id": 2034,
        "fire_probability": 0.5,
        "horizon_hours": 3
      }
    },
    {
      "type": "Feature",
      "geometry": {
        "type": "Polygon",
        "coordinates": [
          [
            [
              -122.13000000000001,
              37.029999999999994
            ],
            [
              -122.12,
              37.029999999999994
            ],
            [
              -122.12,
              37.03999999999999
            ],
            [
              -122.13000000000001,
              37.03999999999999
            ],
            [
              -122.13000000000001,
              37.029999999999994
            ]
          ]
        ]
      },
      "properties": {
        "grid_id": 2035,
        "fire_probability": 0.5,
        "horizon_hours": 3
      }
    },
    {
      "type": "Feature",
      "geometry": {
        "type": "Polygon",
        "coordinates": [
          [
            [
              -122.13000000000001,
              37.04
            ],
            [
              -122.12,
              37.04
            ],
            [
              -122.12,
              37.05
            ],
            [
              -122.13000000000001,
              37.05
            ],
            [
              -122.13000000000001,
              37.04
            ]
          ]
        ]
      },
      "properties": {
        "grid_id": 2036,
        "fire_probability": 0.8,
        "horizon_hours": 3
      }
    },
    {
      "type": "Feature",
      "geometry": {
        "type": "Polygon",
        "coordinates": [
          [
            [
              -122.13000000000001,
              37.05
            ],
            [
              -122.12,
              37.05
            ],
            [
              -122.12,
              37.059999999999995
            ],
            [
              -122.13000000000001,
              37.059999999999995
            ],
            [
              -122.13000000000001,
              37.05
            ]
          ]
        ]
      },
      "properties": {
        "grid_id": 2037,
        "fire_probability": 0.8,
        "horizon_hours": 3
      }
    },
    {
      "type": "Feature",
      "geometry": {
        "type": "Polygon",
        "coordinates": [
          [
            [
              -122.13000000000001,
              37.059999999999995
            ],
            [
              -122.12,
              37.059999999999995
            ],
            [
              -122.12,
              37.06999999999999
            ],
            [
              -122.13000000000001,
              37.06999999999999
            ],
            [
              -122.13000000000001,
              37.059999999999995
            ]
          ]
        ]
      },
      "properties": {
        "grid_id": 2038,
        "fire_probability": 0.8,
        "horizon_hours": 3
      }
    },
    {
      "type": "Feature",
      "geometry": {
        "type": "Polygon",
        "coordinates": [
          [
            [
              -122.13000000000001,
              37.07
            ],
            [
              -122.12,
              37.07
            ],
            [
              -122.12,
              37.08
            ],
            [
              -122.13000000000001,
              37.08
            ],
            [
              -122.13000000000001,
              37.07
            ]
          ]
        ]
      },
      "properties": {
        "grid_id": 2039,
        "fire_probability": 0.5,
        "horizon_hours": 3
      }
    },
    {
      "type": "Feature",
      "geometry": {
        "type": "Polygon",
        "coordinates": [
          [
            [
              -122.12,
              37.029999999999994
            ],
            [
              -122.11,
              37.029999999999994
            ],
            [
              -122.11,
              37.03999999999999
            ],
            [
              -122.12,
              37.03999999999999
            ],
            [
              -122.12,
              37.029999999999994
            ]
          ]
        ]
      },
      "properties": {
        "grid_id": 2040,
        "fire_probability": 0.5,
        "horizon_hours": 3
      }
    },
    {
      "type": "Feature",
      "geometry": {
        "type": "Polygon",
        "coordinates": [
          [
            [
              -122.12,
              37.04
            ],
            [
              -122.11,
              37.04
            ],
            [
              -122.11,
              37.05
            ],
            [
              -122.12,
              37.05
            ],
            [
              -122.12,
              37.04
            ]
          ]
        ]
      },
      "properties": {
        "grid_id": 2041,
        "fire_probability": 0.5,
        "horizon_hours": 3
      }
    },
    {
      "type": "Feature",
      "geometry": {
        "type": "Polygon",
        "coordinates": [
          [
            [
              -122.12,
              37.05
            ],
            [
              -122.11,
              37.05
            ],
            [
              -122.11,
              37.059999999999995
            ],
            [
              -122.12,
              37.059999999999995
            ],
            [
              -122.12,
              37.05
            ]
          ]
        ]
      },
      "properties": {
        "grid_id": 2042,
        "fire_probability": 0.5,
        "horizon_hours": 3
      }
    },
    {
      "type": "Feature",
      "geometry": {
        "type": "Polygon",
        "coordinates": [
          [
            [
              -122.12,
              37.059999999999995
            ],
            [
              -122.11,
              37.059999999999995
            ],
            [
              -122.11,
              37.06999999999999
            ],
            [
              -122.12,
              37.06999999999999
            ],
            [
              -122.12,
              37.059999999999995
            ]
          ]
        ]
      },
      "properties": {
        "grid_id": 2043,
        "fire_probability": 0.5,
        "horizon_hours": 3
      }
    },
    {
      "type": "Feature",
      "geometry": {
        "type": "Polygon",
        "coordinates": [
          [
            [
              -122.12,
              37.07
            ],
            [
              -122.11,
              37.07
            ],
            [
              -122.11,
              37.08
            ],
            [
              -122.12,
              37.08
            ],
            [
              -122.12,
              37.07
            ]
          ]
        ]
      },
      "properties": {
        "grid_id": 2044,
        "fire_probability": 0.5,
        "horizon_hours": 3
      }
    }
  ]
}